placekey,location_name,latitude,longitude,street_address,city,region,postal_code,iso_country_code,top_category
zzw-222@62j-sj2-s3q,Whole Heart Provisions,42.362221000000005,-71.098786,298 Massachusetts Ave,Cambridge,MA,2139,US,Restaurants and Other Eating Places
zzw-224@62j-sjv-975,Kashmir,42.374318,-71.122075,52A Brattle St,Cambridge,MA,2138,US,Restaurants and Other Eating Places
224-222@62j-sjv-9zz,Takemura Japanese Restaurant,42.372089,-71.121409,18 Eliot St,Cambridge,MA,2138,US,Restaurants and Other Eating Places
233-223@62j-sj3-9mk,Halal Buns,42.374045,-71.100616,12 Springfield St,Cambridge,MA,2139,US,Restaurants and Other Eating Places
zzw-224@62j-sgg-kvf,Taqueria,42.360979,-71.113912,340 River St,Cambridge,MA,2139,US,Restaurants and Other Eating Places
zzy-228@62j-sk2-vmk,Akai Ryu Shabu & Sushi Restaurant,42.388544,-71.11863100000001,822 Somerville Ave Fl 2,Cambridge,MA,2140,US,Restaurants and Other Eating Places
22f-223@62j-sjv-9vf,Dig Inn,42.37219,-71.119562,82 Mount Auburn St,Cambridge,MA,2138,US,Restaurants and Other Eating Places
24w-222@62j-shx-tjv,Starbucks,42.367464,-71.076109,100 Cambridgeside Pl Spc E108,Cambridge,MA,2141,US,Restaurants and Other Eating Places
255-223@62j-sjv-9zz,Upstairs On the Square,42.372446000000004,-71.12097800000001,91 Winthrop St,Cambridge,MA,2138,US,Restaurants and Other Eating Places
22j-223@62j-sj2-c3q,Middlesex Cambridge,42.362559999999995,-71.098473,315 Massachusetts Ave,Cambridge,MA,2139,US,Restaurants and Other Eating Places
22p-222@62j-sjv-9mk,Beat Brew Hall,42.373551,-71.120249,13 Brattle St,Cambridge,MA,2138,US,Restaurants and Other Eating Places
22s-222@62j-sjv-bc5,Ben & Jerry's,42.372735999999996,-71.119893,36 JFK St,Cambridge,MA,2138,US,Restaurants and Other Eating Places
265-222@62j-sgg-jvz,Dimi's Place,42.35735,-71.107772,272 Brookline St,Cambridge,MA,2139,US,Restaurants and Other Eating Places
22b-222@62j-sjv-8jv,Cafe Pamplona,42.371775,-71.115461,12 Bow St,Cambridge,MA,2138,US,Restaurants and Other Eating Places
237-222@62j-sk2-vs5,Passage to India,42.388759,-71.119907,1900 Massachusetts Ave,Cambridge,MA,2140,US,Restaurants and Other Eating Places
23g-222@62j-sjv-9zz,Shays Pub & Wine Bar,42.371790000000004,-71.120643,58 JFK St,Cambridge,MA,2138,US,Restaurants and Other Eating Places
226-222@62j-sjv-9mk,Cambridge 1,42.374528000000005,-71.120006,27 Church St,Cambridge,MA,2138,US,Restaurants and Other Eating Places
zzw-233@62j-shx-k9f,Panda Express,42.368501,-71.076611,100 Cambridgeside Pl,Cambridge,MA,2141,US,Restaurants and Other Eating Places
222-224@62j-sjt-68v,Revival Cafe & Kitchen,42.395103999999996,-71.145732,125 Cambridgepark Dr,Cambridge,MA,2140,US,Restaurants and Other Eating Places
22z-222@62j-shx-j7q,Sweet Touch Cafe,42.371195,-71.079971,241 Cambridge St,Cambridge,MA,2141,US,Restaurants and Other Eating Places
24m-223@62j-sjv-9zz,Charlie's Kitchen,42.372378000000005,-71.121496,10 Eliot St,Cambridge,MA,2138,US,Drinking Places (Alcoholic Beverages)
257-222@62j-sjv-9zz,Grendel's Den Restaurant & Bar,42.372469,-71.120857,89 Winthrop St,Cambridge,MA,2138,US,Restaurants and Other Eating Places
zzw-225@62j-sj2-54v,Kendall Kitchen,42.366056,-71.092182,201 Broadway,Cambridge,MA,2139,US,Restaurants and Other Eating Places
226-222@62j-sjy-7nq,SOFRA Bakery & Cafe,42.374893,-71.150349,1 Belmont St,Cambridge,MA,2138,US,Restaurants and Other Eating Places
23j-223@62j-sjv-9mk,The Sinclair,42.374007,-71.12065600000001,52 Church St,Cambridge,MA,2138,US,Restaurants and Other Eating Places
zzw-228@62j-sjv-bc5,Le's Vietnamese Restaurant,42.372595000000004,-71.119313,35 Dunster St,Cambridge,MA,2138,US,Restaurants and Other Eating Places
222-222@62j-sj3-4d9,Clover KND,42.362844,-71.087726,5 Cambridge Ctr,Cambridge,MA,2142,US,Restaurants and Other Eating Places
23s-222@62j-sj2-s5z,TT the Bear's Place,42.36345,-71.101676,10 Brookline St,Cambridge,MA,2139,US,Drinking Places (Alcoholic Beverages)
26n-227@62j-sjv-j7q,Cancun Taqueria Y Mas,42.370767,-71.113384,1105 Massachusetts Ave,Cambridge,MA,2138,US,Restaurants and Other Eating Places
227-222@62j-sjv-9mk,Border Cafe,42.374239,-71.120281,32 Church St,Cambridge,MA,2138,US,Restaurants and Other Eating Places
25y-222@62j-sj2-vmk,Court House Seafood Restaurant,42.371483000000005,-71.084626,498 Cambridge St,Cambridge,MA,2141,US,Restaurants and Other Eating Places
zzw-222@62j-sj3-47q,Chipotle Mexican Grill,42.36255,-71.085605,255 Main St,Cambridge,MA,2142,US,Restaurants and Other Eating Places
22b-223@62j-sj3-2zf,EVOO Restaurant,42.363587,-71.083219,350 3rd St,Cambridge,MA,2142,US,Restaurants and Other Eating Places
23k-223@62j-sgg-j7q,Surya Indian Kitchen,42.35987,-71.10995799999999,114 Magazine St,Cambridge,MA,2139,US,Restaurants and Other Eating Places
23m-222@62j-shx-k4v,2nd Street Cafe,42.36853,-71.079323,89 2nd St,Cambridge,MA,2141,US,Restaurants and Other Eating Places
246-222@62j-sj3-9fz,Corazon De Frida,42.373670000000004,-71.098901,1287 Cambridge St,Cambridge,MA,2139,US,Restaurants and Other Eating Places
25d-223@62j-sj2-p35,Shalimar of India,42.364321999999994,-71.102388,546 Massachusetts Ave,Cambridge,MA,2139,US,Restaurants and Other Eating Places
25w-228@62j-sjv-j35,Harvest of India,42.369549,-71.111356,1001 Massachusetts Ave,Cambridge,MA,2138,US,Restaurants and Other Eating Places
zzw-222@62j-shx-ht9,Bambara,42.367971000000004,-71.075004,25 Edwin H Land Blvd,Cambridge,MA,2141,US,Restaurants and Other Eating Places
226-228@62j-sjv-bp9,The Heights Harvard Restaurant & Bar,42.372669,-71.118664,1350 Massachusetts Ave Fl 10,Cambridge,MA,2138,US,Restaurants and Other Eating Places
22h-223@62j-sjv-9mk,Club Passim,42.374223,-71.120026,47 Palmer St,Cambridge,MA,2138,US,Restaurants and Other Eating Places
23f-222@62j-sj2-rzf,Toscanini's Ice Cream,42.363592,-71.099497,899 Main St,Cambridge,MA,2139,US,Restaurants and Other Eating Places
zzw-228@62j-sj3-33q,Kika Tapas,42.363444,-71.082966,5 Broad Canal Way,Cambridge,MA,2142,US,Restaurants and Other Eating Places
223-224@62j-sgg-5j9,Zephyr On the Charles,42.35376,-71.105473,575 Memorial Dr,Cambridge,MA,2139,US,Restaurants and Other Eating Places
22k-223@62j-sjv-9mk,Milk Bar,42.373613,-71.119502,3 Brattle St,Cambridge,MA,2138,US,Restaurants and Other Eating Places
22x-222@62j-shx-jvz,Geppetto,42.372007,-71.075711,100 N First St,Cambridge,MA,2141,US,Restaurants and Other Eating Places
25n-222@62j-sjv-9zz,Tom's Bao Bao,42.372245,-71.120861,84 Winthrop St,Cambridge,MA,2138,US,Restaurants and Other Eating Places
zzw-23j@62j-shx-k9f,Chicken Now,42.368204,-71.076154,100 Cambridgeside Pl,Cambridge,MA,2141,US,Restaurants and Other Eating Places
222-223@62j-sj3-9fz,Beauty's Pizza,42.372775,-71.099329,187 Hampshire St,Cambridge,MA,2139,US,Restaurants and Other Eating Places
25n-223@62j-sjs-v75,Hana Sushi,42.396633,-71.12982,2372 Massachusetts Ave,Cambridge,MA,2140,US,Restaurants and Other Eating Places
223-224@62j-sk2-y5f,Starbucks,42.390043,-71.118227,49 White St,Cambridge,MA,2140,US,Restaurants and Other Eating Places
25v-222@62j-sjv-b6k,Boloco Harvard,42.373128,-71.12337099999999,71 Mount Auburn St,Cambridge,MA,2138,US,Restaurants and Other Eating Places
24x-222@62j-sjv-9zz,Park Restaurant & Bar,42.371882,-71.121144,59 JFK St,Cambridge,MA,2138,US,Restaurants and Other Eating Places
24y-222@62j-sjv-975,The Just Crust,42.374303999999995,-71.121482,49B Brattle St,Cambridge,MA,2138,US,Restaurants and Other Eating Places
zzw-225@62j-sjs-3yv,McDonald's,42.390334,-71.14072900000001,186 Alewife Brook Pkwy,Cambridge,MA,2138,US,Restaurants and Other Eating Places
25x-222@62j-sj3-4vz,Kendall,42.367616999999996,-71.081342,201 3rd St,Cambridge,MA,2141,US,Restaurants and Other Eating Places
24b-222@62j-sjv-g8v,Basta Pasta Trattoria,42.36469,-71.113258,319 Western Ave,Cambridge,MA,2139,US,Restaurants and Other Eating Places
25x-222@62j-sj2-j9z,Angelo's Pizza,42.372968,-71.110736,444 Broadway,Cambridge,MA,2138,US,Restaurants and Other Eating Places
235-222@62j-sj2-syv,1369 Coffee House,42.366566,-71.10529,757 Massachusetts Ave,Cambridge,MA,2139,US,Restaurants and Other Eating Places
23h-222@62j-sjv-g6k,The Coast Cafe,42.363096999999996,-71.11159599999999,233 River St,Cambridge,MA,2139,US,Restaurants and Other Eating Places
zzw-22q@62j-shx-k9f,Chipotle Mexican Grill,42.368604,-71.076589,100 Cambridgeside Pl Spc F21,Cambridge,MA,2141,US,Restaurants and Other Eating Places
zzy-223@62j-sjv-cwk,Whole Foods Food Truck,42.376302,-71.118932,1867 Cambridge St # 1879,Cambridge,MA,2138,US,Restaurants and Other Eating Places
224-222@62j-sjv-8qf,Blue Bottle Coffee,42.371488,-71.11684699999999,40 Bow St,Cambridge,MA,2138,US,Restaurants and Other Eating Places
224-224@62j-sj4-syv,One Memorial Drive Cafe,42.361342,-71.08126700000001,1 Memorial Dr,Cambridge,MA,2142,US,Restaurants and Other Eating Places
225-222@62j-sj2-jn5,Dado Tea,42.369111,-71.109872,955 Massachusetts Ave,Cambridge,MA,2139,US,Restaurants and Other Eating Places
226-22c@62j-sk2-vcq,Yotopia,42.387287,-71.118641,1815 Massachusetts Ave,Cambridge,MA,2140,US,Restaurants and Other Eating Places
22n-222@62j-sjs-tgk,Jose's Mexican Restaurant,42.390184999999995,-71.132847,131 Sherman St,Cambridge,MA,2140,US,Restaurants and Other Eating Places
233-222@62j-sj2-8gk,All Star Pizza Bar,42.373252,-71.098086,1238 Cambridge St,Cambridge,MA,2139,US,Restaurants and Other Eating Places
zzw-227@62j-sj2-p35,Paris Baguette,42.364979,-71.102604,581 Massachusetts Ave,Cambridge,MA,2139,US,Restaurants and Other Eating Places
228-223@62j-sk2-vs5,Little Bake,42.389444,-71.119695,1925 Massachusetts Ave,Cambridge,MA,2140,US,Restaurants and Other Eating Places
22r-222@62j-sj2-6hq,Pepita Coffee,42.367946999999994,-71.09784300000001,284 Broadway,Cambridge,MA,2139,US,Restaurants and Other Eating Places
235-222@62j-sj2-s5z,Happy Lamb Hot Pot,42.364142,-71.101297,485 Massachusetts Ave,Cambridge,MA,2139,US,Restaurants and Other Eating Places
243-222@62j-shx-j7q,Dunkin',42.372246000000004,-71.07982,5 3rd St,Cambridge,MA,2141,US,Restaurants and Other Eating Places
27v-223@62j-sk3-649,Stone Hearth Pizza,42.385904,-71.11962199999999,1782 Massachusetts Ave,Cambridge,MA,2140,US,Restaurants and Other Eating Places
zzw-224@62j-shx-k9f,Burger King,42.368323,-71.07661800000001,100 Cambridgeside Pl,Cambridge,MA,2141,US,Restaurants and Other Eating Places
22x-223@62j-sj2-ffz,Beijing Tokyo,42.363347999999995,-71.096861,781 Main St,Cambridge,MA,2139,US,Restaurants and Other Eating Places
zzw-223@62j-sgg-kvf,WFM Coffee Bar,42.361022,-71.113927,340 River St,Cambridge,MA,2139,US,Restaurants and Other Eating Places
22w-222@62j-sj2-rkz,Donut Villa Diner,42.36587,-71.103442,20 Prospect St,Cambridge,MA,2139,US,Restaurants and Other Eating Places
26w-222@62j-sjv-kfz,Dunster Grille,42.368396999999995,-71.116023,945 Memorial Dr,Cambridge,MA,2138,US,Restaurants and Other Eating Places
zzw-226@62j-sk2-v9f,Tampopo,42.387335,-71.118481,1815 Massachusetts Ave,Cambridge,MA,2140,US,Restaurants and Other Eating Places
222-222@62j-sj3-35z,Cafe ArtScience,42.364429,-71.081038,650 E Kendall St,Cambridge,MA,2142,US,Restaurants and Other Eating Places
225-222@62j-sgg-fpv,Bisuteki Japanese Steak House,42.358653000000004,-71.11510799999999,777 Memorial Dr,Cambridge,MA,2139,US,Restaurants and Other Eating Places
228-223@62j-sjv-9zz,Amorino Gelato,42.372027,-71.120423,50 JFK St,Cambridge,MA,2138,US,Restaurants and Other Eating Places
23j-222@62j-sj2-vzz,Aram's No 2 Pizza & Subs,42.371476,-71.081655,345 Cambridge St,Cambridge,MA,2141,US,Restaurants and Other Eating Places
zzw-222@62j-sk3-66k,The Abbey,42.385103,-71.119129,1755 Massachusetts Ave,Cambridge,MA,2140,US,Drinking Places (Alcoholic Beverages)
zzy-222@62j-sj2-75z,Dunkin',42.3731,-71.09354,1001 Cambridge St Shell,Cambridge,MA,2141,US,Restaurants and Other Eating Places
zzy-222@62j-sj2-c3q,Abide,42.362556,-71.098477,317 Massachusetts Ave,Cambridge,MA,2139,US,Restaurants and Other Eating Places
22f-222@62j-sk2-zzz,Temple Bar,42.382761,-71.11997,1688 Massachusetts Ave,Cambridge,MA,2138,US,Restaurants and Other Eating Places
244-222@62j-sjz-7t9,Cafe Barada,42.394752000000004,-71.12689499999999,2269 Massachusetts Ave,Cambridge,MA,2140,US,Restaurants and Other Eating Places
zzw-224@62j-sk2-vs5,Emack & Bolio's Ice Cream,42.388933,-71.119111,23 White St,Cambridge,MA,2140,US,Restaurants and Other Eating Places
224-223@62j-sjv-9zz,Tanjore,42.372040000000005,-71.121374,18 Eliot St,Cambridge,MA,2138,US,Restaurants and Other Eating Places
228-222@62j-sj2-x89,Pronto Cafe,42.372118,-71.087085,645 Cambridge St,Cambridge,MA,2141,US,Restaurants and Other Eating Places
22p-224@62j-sj2-sdv,MrBeast Burger,42.363405,-71.097257,799 Main St,Cambridge,MA,2139,US,Restaurants and Other Eating Places
24k-224@62j-sk3-249,Shepard,42.381851,-71.12013,1 Shepard St,Cambridge,MA,2138,US,Restaurants and Other Eating Places
zzw-222@62j-sj2-pgk,Pacific Street Cafe,42.359757,-71.101863,75 Pacific St,Cambridge,MA,2139,US,Restaurants and Other Eating Places
zzw-228@62j-sj2-s5z,Thelonious Monkfish,42.364103,-71.102124,524 Massachusetts Ave,Cambridge,MA,2139,US,Restaurants and Other Eating Places
zzw-22c@62j-sjv-j35,Domino's Pizza,42.369725,-71.111874,1033 Massachusetts Ave,Cambridge,MA,2138,US,Restaurants and Other Eating Places
zzy-222@62j-sjv-d5f,Harkness Commons,42.378043,-71.118674,Harvard Law School,Cambridge,MA,2138,US,Restaurants and Other Eating Places
22k-222@62j-sjv-9mk,&pizza,42.373559,-71.119619,3 Brattle St,Cambridge,MA,2138,US,Restaurants and Other Eating Places
22v-222@62j-sjv-bc5,The Hourly Oyster House,42.372917,-71.119156,15 Dunster St,Cambridge,MA,2138,US,Restaurants and Other Eating Places
243-225@62j-sjt-kxq,Henrietta's Table,42.372283,-71.12325799999999,1 Bennett St,Cambridge,MA,2138,US,Restaurants and Other Eating Places
25x-223@62j-sjv-8jv,Kung Fu Tea,42.371255,-71.11466300000001,1160 Massachusetts Ave,Cambridge,MA,2138,US,Restaurants and Other Eating Places
zzy-223@62j-sk2-xdv,MEM Tea,42.393193,-71.120671,196 Elm St,Cambridge,MA,2144,US,Restaurants and Other Eating Places
zzy-226@62j-sk2-vs5,Toad,42.388985,-71.119948,1912 Massachusetts Ave,Cambridge,MA,2140,US,Drinking Places (Alcoholic Beverages)
22x-223@62j-sj3-9mk,Moona,42.374155,-71.101091,243 Hampshire St,Cambridge,MA,2139,US,Restaurants and Other Eating Places
zzy-222@62j-sjv-85f,Starbucks,42.373344,-71.11921099999999,1380 Mass Ave Harvard Yard,Cambridge,MA,2138,US,Restaurants and Other Eating Places
zzw-22b@62j-sj2-p35,Central Kitchen,42.364865,-71.10248399999999,567 Massachusetts Ave,Cambridge,MA,2139,US,Restaurants and Other Eating Places
222-223@62j-sj3-45f,Meadhall,42.363694,-71.087271,4 Cambridge Ctr,Cambridge,MA,2142,US,Restaurants and Other Eating Places
223-22f@62j-sj2-ckf,Alpine Bagel,42.35907,-71.09475400000001,84 Massachusetts Ave Bldg W20101,Cambridge,MA,2139,US,Restaurants and Other Eating Places
226-226@62j-sk2-vcq,Chocho's,42.387181,-71.11849000000001,1815 Massachusetts Ave,Cambridge,MA,2140,US,Restaurants and Other Eating Places
23n-222@62j-sj3-2zf,Barismo,42.364391,-71.08345600000001,295 3rd St,Cambridge,MA,2142,US,Restaurants and Other Eating Places
zzw-222@62j-sjv-b6k,Blackbird Doughnuts,42.37253,-71.11839499999999,15 Holyoke St,Cambridge,MA,2138,US,Restaurants and Other Eating Places
222-223@62j-shx-k75,Tahaza Hummus Kitchen,42.369777,-71.076942,1 Canal Park,Cambridge,MA,2141,US,Restaurants and Other Eating Places
22k-222@62j-sj2-8gk,Casa Portugal,42.373117,-71.097391,1200 Cambridge St,Cambridge,MA,2139,US,Restaurants and Other Eating Places
26t-222@62j-sk3-649,Bagelsaurus,42.386094,-71.119577,1796 Massachusetts Ave,Cambridge,MA,2140,US,Restaurants and Other Eating Places
zzw-223@62j-sj2-54v,West Bridge,42.365994,-71.09102,1 Kendall Sq,Cambridge,MA,2139,US,Drinking Places (Alcoholic Beverages)
zzy-227@62j-sjv-9zz,Bonchon,42.37209,-71.120742,57 John F Kennedy St Cambridge,Cambridge,MA,2138,US,Restaurants and Other Eating Places
22d-222@62j-sjr-zcq,Dunkin',42.387839,-71.142286,517 Concord Ave,Cambridge,MA,2138,US,Restaurants and Other Eating Places
22j-222@62j-sj2-rkz,Starbucks,42.365675,-71.103734,655 Massachusetts Ave,Cambridge,MA,2139,US,Restaurants and Other Eating Places
239-222@62j-sj2-7dv,Earnest Drinks,42.367958,-71.090294,399 Binney St,Cambridge,MA,2142,US,Restaurants and Other Eating Places
248-222@62j-sjs-vpv,L'Impasto,42.394528,-71.126646,2263 Massachusetts Ave,Cambridge,MA,2140,US,Restaurants and Other Eating Places
zzw-22b@62j-sjv-8y9,Zoe's,42.370759,-71.113401,1105 Massachusetts Ave,Cambridge,MA,2138,US,Restaurants and Other Eating Places
228-224@62j-sj2-rtv,Cicada Coffee Bar,42.367571000000005,-71.102001,106 Prospect St,Cambridge,MA,2139,US,Restaurants and Other Eating Places
22b-223@62j-sk2-vs5,Rod Dee,42.388818,-71.119988,1906 Massachusetts Ave,Cambridge,MA,2140,US,Restaurants and Other Eating Places
247-222@62j-sj3-9s5,All Star Sandwich Bar,42.373506,-71.09818800000001,1245 Cambridge St,Cambridge,MA,2139,US,Restaurants and Other Eating Places
24d-222@62j-sgk-2x5,Sheesha Lounge,42.355148,-71.134045,139 Magazine St,Cambridge,MA,2139,US,Drinking Places (Alcoholic Beverages)
zzw-222@62j-sj2-bx5,Oath Pizza Central Square,42.361329,-71.096228,181 Massachusetts Ave Ste 1,Cambridge,MA,2139,US,Restaurants and Other Eating Places
22g-222@62j-sjv-9zz,Tommy Doyle's,42.372314,-71.12116999999999,96 Winthrop St,Cambridge,MA,2138,US,Restaurants and Other Eating Places
223-224@62j-sjv-9mk,Harvard COOP Cafe,42.373762,-71.119833,1400 Massachusetts Ave,Cambridge,MA,2138,US,Restaurants and Other Eating Places
22z-222@62j-sj2-rzf,Cinderella's Bar & Resturant,42.363605,-71.099564,901 Main St,Cambridge,MA,2139,US,Restaurants and Other Eating Places
zzw-222@62j-shx-j7q,Route 66 Cafe,42.371293,-71.080101,251 Cambridge St Unit 626,Cambridge,MA,2141,US,Restaurants and Other Eating Places
22d-224@62j-sjv-9zz,Kaju Tofu House,42.372065,-71.120869,57 JFK St,Cambridge,MA,2138,US,Restaurants and Other Eating Places
zzw-223@62j-sj3-2kz,Sumiao Hunan Kitchen,42.366023999999996,-71.081946,270 3rd St,Cambridge,MA,2142,US,Restaurants and Other Eating Places
zzw-224@62j-sk2-tsq,Wasabi at Porter,42.391257,-71.12347700000001,2088 Massachusetts Ave,Cambridge,MA,2140,US,Restaurants and Other Eating Places
zzy-222@62j-sj3-85f,BISq,42.373292,-71.095058,1071 Cambridge St,Cambridge,MA,2139,US,Restaurants and Other Eating Places
226-224@62j-sjv-bp9,Bon Me Smith Campus Center,42.372969,-71.118472,1350 Massachusetts Ave,Cambridge,MA,2138,US,Restaurants and Other Eating Places
229-222@62j-sj2-rzf,Desi Dhaba,42.363634999999995,-71.09994,401 Massachusetts Ave,Cambridge,MA,2139,US,Restaurants and Other Eating Places
24z-222@62j-sk3-649,Chalawan,42.385968,-71.119582,1790 Massachusetts Ave,Cambridge,MA,2140,US,Restaurants and Other Eating Places
24j-222@62j-sjz-k4v,The Table at Season to Taste,42.398351,-71.13101999999999,2447 Massachusetts Ave,Cambridge,MA,2140,US,Restaurants and Other Eating Places
222-222@62j-sj2-p7q,Green Street,42.364559,-71.104169,280 Green St,Cambridge,MA,2139,US,Drinking Places (Alcoholic Beverages)
222-222@62j-sjt-575,Summer Shack,42.393743,-71.141012,149 Alewife Brook Pkwy,Cambridge,MA,2140,US,Restaurants and Other Eating Places
226-222@62j-sk2-tqf,GLOW Boston,42.38949,-71.12061700000001,1950 Massachusetts Ave,Cambridge,MA,2140,US,Drinking Places (Alcoholic Beverages)
237-223@62j-sjs-v75,Copacabana Pizza & Grill,42.396733000000005,-71.12984300000001,2378 Massachusetts Ave,Cambridge,MA,2140,US,Restaurants and Other Eating Places
243-227@62j-sjt-kxq,Noir,42.372344,-71.12266600000001,1 Bennett St,Cambridge,MA,2138,US,Drinking Places (Alcoholic Beverages)
zzw-222@62j-sk2-zxq,Hi Rise Bread Company,42.381838,-71.11941,1663 Massachusetts Ave,Cambridge,MA,2138,US,Restaurants and Other Eating Places
zzw-224@62j-sj2-54v,The Smoke Shop BBQ Kendall Square,42.366383,-71.091443,1 Kendall Sq,Cambridge,MA,2139,US,Restaurants and Other Eating Places
zzw-224@62j-sk2-zvf,Giulia,42.382519,-71.119948,1682 Massachusetts Ave,Cambridge,MA,2138,US,Restaurants and Other Eating Places
zzw-225@62j-sjv-975,Lee's Restaurant,42.374257,-71.12123299999999,61 Church St,Cambridge,MA,2138,US,Restaurants and Other Eating Places
223-222@62j-sk2-tsq,Darul Kabab,42.391157,-71.123274,2072 Massachusetts Ave,Cambridge,MA,2140,US,Restaurants and Other Eating Places
226-222@62j-sj2-t35,730 Tavern Kitchen & Patio,42.365967,-71.105213,730 Massachusetts Ave,Cambridge,MA,2139,US,Restaurants and Other Eating Places
24r-222@62j-sjt-kmk,Legal Sea Foods,42.372327,-71.123515,20 University Rd,Cambridge,MA,2138,US,Restaurants and Other Eating Places
224-222@62j-sj3-5vf,Boca Grande,42.366295,-71.07820600000001,149 1st St,Cambridge,MA,2142,US,Restaurants and Other Eating Places
244-222@62j-sj3-9fz,S & S Restaurant,42.3734,-71.099827,1334 Cambridge St,Cambridge,MA,2139,US,Restaurants and Other Eating Places
227-222@62j-sk3-2c5,Honeycomb Creamery,42.383215,-71.119849,1702 Massachusetts Ave,Cambridge,MA,2138,US,Restaurants and Other Eating Places
24m-222@62j-sjs-v75,Cambridge House of Pizza,42.397326,-71.130785,2420 Massachusetts Ave,Cambridge,MA,2140,US,Restaurants and Other Eating Places
222-223@62j-sj3-35z,Senses,42.364388,-71.081027,650 E Kendall St,Cambridge,MA,2142,US,Restaurants and Other Eating Places
225-224@62j-sgg-fpv,Club Caribe,42.358540999999995,-71.114827,777 Memorial Dr,Cambridge,MA,2139,US,Drinking Places (Alcoholic Beverages)
22x-223@62j-sk3-2c5,Tisan Coffee Express,42.383928999999995,-71.119848,1722 Massachusetts Ave,Cambridge,MA,2138,US,Restaurants and Other Eating Places
23d-222@62j-sj2-xbk,Elmendorf Baking Supplies,42.371654,-71.086311,594 Cambridge St,Cambridge,MA,2141,US,Restaurants and Other Eating Places
23x-222@62j-sj2-wx5,Souper Roll Up Cafe,42.372071999999996,-71.08889599999999,726 Cambridge St,Cambridge,MA,2141,US,Restaurants and Other Eating Places
26n-22c@62j-sjv-j7q,Lamole,42.370857,-71.113528,1105 Massachusetts Ave,Cambridge,MA,2138,US,Restaurants and Other Eating Places
zzw-222@62j-sj2-bzf,Flour Bakery Cafe,42.360789000000004,-71.096565,190 Massachusetts Ave,Cambridge,MA,2139,US,Restaurants and Other Eating Places
zzw-223@62j-sj3-89z,Richards,42.373435,-71.097193,1193 Cambridge St,Cambridge,MA,2139,US,Restaurants and Other Eating Places
zzw-223@62j-sjt-4y9,Julia's Polish Deli,42.395756,-71.141414,10 Cambridgepark Dr,Cambridge,MA,2140,US,Restaurants and Other Eating Places
22j-222@62j-sj2-bx5,Beantown Taqueria,42.361782,-71.097149,245 Massachusetts Ave,Cambridge,MA,2139,US,Restaurants and Other Eating Places
26n-225@62j-sjv-j7q,New Asia,42.370698,-71.113341,1105 Massachusetts Ave,Cambridge,MA,2138,US,Restaurants and Other Eating Places
224-222@62j-sjr-z75,Compliments Food,42.387895,-71.140417,26 New St,Cambridge,MA,2138,US,Restaurants and Other Eating Places
22d-225@62j-sjv-9zz,The Maharaja,42.372161,-71.12074799999999,57 JFK St,Cambridge,MA,2138,US,Restaurants and Other Eating Places
23r-222@62j-sj2-s5z,Little Donkey,42.364360999999995,-71.101518,505 Massachusetts Ave,Cambridge,MA,2139,US,Restaurants and Other Eating Places
25v-223@62j-sjv-b6k,Playa Bowls,42.373127000000004,-71.123368,71 Mount Auburn St,Cambridge,MA,2138,US,Restaurants and Other Eating Places
222-222@62j-sgg-kxq,Mary's Deli On the Charles,42.361816,-71.115667,820 Memorial Dr,Cambridge,MA,2139,US,Restaurants and Other Eating Places
224-222@62j-sjv-hqz,Darwin's,42.368968,-71.113656,37 Putnam Ave,Cambridge,MA,2139,US,Restaurants and Other Eating Places
232-223@62j-sj2-c3q,A4cade by Area Four,42.361999,-71.09848000000001,292 Massachusetts Ave,Cambridge,MA,2139,US,Drinking Places (Alcoholic Beverages)
235-223@62j-sk2-vmk,Anna's Taqueria,42.388388,-71.11823199999999,1 Porter Sq,Cambridge,MA,2140,US,Restaurants and Other Eating Places
zzw-22d@62j-shx-k9f,D'Angelo,42.368182,-71.07616,100 Cambridgeside Pl Fl 9,Cambridge,MA,2141,US,Restaurants and Other Eating Places
222-223@62j-sj3-47q,Starbucks,42.362845,-71.085552,50 Broadway,Cambridge,MA,2142,US,Restaurants and Other Eating Places
22b-223@62j-sj2-rff,Dosa Factory,42.364998,-71.102425,571 Massachusetts Ave,Cambridge,MA,2139,US,Restaurants and Other Eating Places
23p-222@62j-sj2-mkz,Darwin's,42.374994,-71.109363,1629 Cambridge St,Cambridge,MA,2138,US,Restaurants and Other Eating Places
243-223@62j-sjt-kxq,Regattabar Jazz Club,42.372398,-71.12313499999999,1 Bennett St,Cambridge,MA,2138,US,Drinking Places (Alcoholic Beverages)
zzw-225@62j-sjv-9mk,Felipe's Taqueria,42.373583,-71.12049,83 Mount Auburn St,Cambridge,MA,2138,US,Restaurants and Other Eating Places
223-224@62j-sj3-4d9,Beatnik Beverage Company,42.362809000000006,-71.087098,355 Main St,Cambridge,MA,2142,US,Restaurants and Other Eating Places
225-223@62j-shx-t35,Dante,42.366781,-71.075011,40 Edwin H Land Blvd,Cambridge,MA,2142,US,Restaurants and Other Eating Places
22s-226@62j-sjv-bc5,Chutney's,42.372633,-71.119889,36 JFK St,Cambridge,MA,2138,US,Restaurants and Other Eating Places
22f-222@62j-sjs-99f,The Village Kitchen,42.381406,-71.138497,359 Huron Ave,Cambridge,MA,2138,US,Restaurants and Other Eating Places
236-222@62j-sj2-hnq,Barismo,42.370467,-71.104428,364 Broadway,Cambridge,MA,2139,US,Restaurants and Other Eating Places
25h-222@62j-sk3-249,Starbucks,42.38192,-71.119949,1662 Massachusetts Ave,Cambridge,MA,2138,US,Restaurants and Other Eating Places
226-222@62j-sjs-vpv,Yummy Thai,42.394486,-71.126632,2261 Massachusetts Ave,Cambridge,MA,2140,US,Restaurants and Other Eating Places
228-222@62j-sjv-fzz,Alive & Kicking Lobsters,42.362536,-71.113988,269 Putnam Ave,Cambridge,MA,2139,US,Restaurants and Other Eating Places
zzw-225@62j-sjv-bc5,Subway,42.372502000000004,-71.119558,Corner of Mt. Auburn & Jfk St. Level 1 Unit 2 09 T,Cambridge,MA,2138,US,Restaurants and Other Eating Places
222-224@62j-sk2-v9f,Caffè Nero,42.388049,-71.119664,1868 Massachusetts Ave,Cambridge,MA,2140,US,Restaurants and Other Eating Places
22s-222@62j-sjt-3qz,Gran Gusto,42.38851,-71.13216899999999,90 Sherman St,Cambridge,MA,2140,US,Restaurants and Other Eating Places
zzw-223@62j-sj3-4d9,Sebastians,42.363039,-71.088413,415 Main St,Cambridge,MA,2142,US,Restaurants and Other Eating Places
zzy-224@62j-sj2-qj9,Beantown Taqueria,42.364764,-71.108767,148 Western Ave,Cambridge,MA,2139,US,Restaurants and Other Eating Places
222-222@62j-sjt-yvz,Head of the Charles,42.372262,-71.133935,2 Gerrys Landing Rd,Cambridge,MA,2138,US,Restaurants and Other Eating Places
226-226@62j-sjv-99f,Spyce,42.373169,-71.121421,1 Brattle Sq,Cambridge,MA,2138,US,Restaurants and Other Eating Places
22m-222@62j-sjv-9mk,Cardullo's Gourmet Shoppe,42.373605,-71.11969599999999,6 Brattle St,Cambridge,MA,2138,US,Restaurants and Other Eating Places
243-224@62j-sjt-kxq,Pronto,42.372287,-71.122901,1 Bennett St,Cambridge,MA,2138,US,Restaurants and Other Eating Places
24d-222@62j-sj2-s5z,Middle East Restaurant and Nightclub,42.363664,-71.101451,472 Massachusetts Ave # 480,Cambridge,MA,2139,US,Restaurants and Other Eating Places
222-225@62j-sjv-brk,Churn2 Superior Ice Cream,42.376216,-71.116373,1 Oxford St,Cambridge,MA,2138,US,Restaurants and Other Eating Places
25d-222@62j-sj2-p35,5 Spices House Cambridge,42.364343,-71.102333,546 Massachusetts Ave,Cambridge,MA,2139,US,Restaurants and Other Eating Places
zzw-224@62j-sj2-s5z,Mary Chung Restaurant,42.363572,-71.101336,460 Massachusetts Ave,Cambridge,MA,2139,US,Restaurants and Other Eating Places
23s-223@62j-sjv-8n5,Oberon,42.370907,-71.114488,2 Arrow St,Cambridge,MA,2138,US,Drinking Places (Alcoholic Beverages)
24j-223@62j-sj2-vs5,9Zaab,42.371947999999996,-71.085774,569 Cambridge St,Cambridge,MA,2141,US,Restaurants and Other Eating Places
25h-222@62j-sk2-p7q,Broadsheet Coffee Roasters,42.377946,-71.107261,100 Kirkland St,Cambridge,MA,2138,US,Restaurants and Other Eating Places
zzw-223@62j-sj3-2tv,Commonwealth Restaurant and Market,42.363323,-71.08247,11 Broad Canal Way,Cambridge,MA,2142,US,Restaurants and Other Eating Places
zzw-224@62j-sjv-835,Poke Works,42.374306,-71.119126,1440 Massachusetts Ave,Cambridge,MA,2138,US,Restaurants and Other Eating Places
zzw-22b@62j-shx-k9f,Charley's,42.368182,-71.076192,100 Cambridgeside Pl,Cambridge,MA,2141,US,Restaurants and Other Eating Places
234-222@62j-sjv-b6k,JP Licks,42.37281,-71.11756,1312 Massachusetts Ave,Cambridge,MA,2138,US,Restaurants and Other Eating Places
zzw-222@62j-sjs-yqf,House of Chang,42.383521,-71.133739,282 Concord Ave,Cambridge,MA,2138,US,Restaurants and Other Eating Places
227-222@62j-sk2-vs5,Christopher's,42.38906,-71.120038,1920 Massachusetts Ave,Cambridge,MA,2140,US,Restaurants and Other Eating Places
23y-223@62j-sj3-9fz,Haveli Restaurant,42.373288,-71.098427,1248 Cambridge St,Cambridge,MA,2139,US,Restaurants and Other Eating Places
zzy-223@62j-shx-k9f,Gong Cha,42.368489000000004,-71.07615799999999,100 Cambridgeside Pl,Cambridge,MA,2141,US,Restaurants and Other Eating Places
22b-224@62j-sk2-zvf,Kaveri Indian Bistro,42.382437,-71.119952,1680 Massachusetts Ave,Cambridge,MA,2138,US,Restaurants and Other Eating Places
23n-223@62j-sjs-yqf,T W Food,42.383761,-71.13445300000001,377 Walden St,Cambridge,MA,2138,US,Restaurants and Other Eating Places
24c-222@62j-sjv-fvf,Riverside Pizza & Seafoods,42.362479,-71.11332900000001,305 River St,Cambridge,MA,2139,US,Restaurants and Other Eating Places
23d-222@62j-sjv-cdv,Harvard Faculty Club,42.37324,-71.114262,20 Quincy St,Cambridge,MA,2138,US,Restaurants and Other Eating Places
23v-222@62j-sjv-bc5,El Jefes Taqueria,42.372528,-71.119724,83 Mount Auburn St,Cambridge,MA,2138,US,Restaurants and Other Eating Places
zzw-222@62j-shx-gx5,Cafe Beatrice,42.371938,-71.075402,100 N First St,Cambridge,MA,2141,US,Restaurants and Other Eating Places
zzw-224@62j-sjv-8n5,Zinneken's,42.371169,-71.11453900000001,1154 Massachusetts Ave,Cambridge,MA,2138,US,Restaurants and Other Eating Places
zzy-222@62j-sjr-zcq,Freepoint Kitchen and Bar,42.388596,-71.142195,221 Alewife Brook Pkwy,Cambridge,MA,2138,US,Drinking Places (Alcoholic Beverages)
232-222@62j-sj2-c3q,Roxy's Grilled Cheese,42.361999,-71.09847099999999,292 Massachusetts Ave,Cambridge,MA,2139,US,Restaurants and Other Eating Places
23k-222@62j-sgg-j7q,Village Grill & Seafood,42.359894,-71.109963,114 Magazine St,Cambridge,MA,2139,US,Restaurants and Other Eating Places
228-223@62j-sj2-fcq,Newtowne Variety,42.363766999999996,-71.096816,93 Windsor St,Cambridge,MA,2139,US,Restaurants and Other Eating Places
22w-222@62j-sk2-vs5,Wok N' Roll,42.388828000000004,-71.119997,1908 Massachusetts Ave,Cambridge,MA,2140,US,Restaurants and Other Eating Places
238-222@62j-sjv-9zz,Night Market,42.372165,-71.120181,75 Winthrop St,Cambridge,MA,2138,US,Restaurants and Other Eating Places
24s-222@62j-sj3-85f,M'Lor Caffe,42.373178,-71.095437,1093 Cambridge St,Cambridge,MA,2139,US,Restaurants and Other Eating Places
zzw-223@62j-sj3-5vf,Gracenote Coffee & Wine,42.366116999999996,-71.07781999999999,150 1st St,Cambridge,MA,2142,US,Drinking Places (Alcoholic Beverages)
222-222@62j-sjs-54v,Dunkin',42.390058,-71.14299100000001,201 Alewife Brook Pkwy,Cambridge,MA,2138,US,Restaurants and Other Eating Places
222-223@62j-sj2-dqf,Forbes Family Cafe,42.361649,-71.09047,32 Vassar St,Cambridge,MA,2139,US,Restaurants and Other Eating Places
zzw-226@62j-shx-k9f,Fava Bean Mediterranean,42.368641,-71.076369,100 Cambridgeside Pl,Cambridge,MA,2141,US,Restaurants and Other Eating Places
23f-222@62j-sjv-9mk,Otto,42.374106,-71.119212,1432 Massachusetts Ave,Cambridge,MA,2138,US,Restaurants and Other Eating Places
23x-222@62j-sjv-9zz,Pinocchios Pizza & Subs,42.371963,-71.120281,74 Winthrop St,Cambridge,MA,2138,US,Restaurants and Other Eating Places
222-222@62j-sj4-vcq,Melting Sun,42.360213,-71.085994,100 Memorial Dr,Cambridge,MA,2142,US,Restaurants and Other Eating Places
226-223@62j-sjv-bp9,Al's Harvard Square Cafe,42.373074,-71.118308,1350 Massachusetts Ave,Cambridge,MA,2138,US,Restaurants and Other Eating Places
22c-222@62j-sjv-9zz,Dunkin',42.371739,-71.121116,65 JFK St,Cambridge,MA,2138,US,Restaurants and Other Eating Places
22d-222@62j-sjt-kxq,Flour Bakery Cafe,42.373053000000006,-71.122393,114 Mount Auburn St,Cambridge,MA,2138,US,Restaurants and Other Eating Places
zzw-222@62j-sjt-649,SANTE Mobile Farmhouse Cafe,42.395428,-71.149438,200 Cambridgepark Dr,Cambridge,MA,2140,US,Restaurants and Other Eating Places
222-224@62j-sj3-47q,Champions,42.362790000000004,-71.085498,50 Broadway,Cambridge,MA,2142,US,Restaurants and Other Eating Places
22n-222@62j-sjs-zpv,Armando's Pizza & Subs,42.382382,-71.131433,163 Huron Ave,Cambridge,MA,2138,US,Restaurants and Other Eating Places
27v-222@62j-sk3-649,The Upper Crust Pizzeria,42.385859,-71.11961099999999,1782 Massachusetts Ave,Cambridge,MA,2140,US,Restaurants and Other Eating Places
zzw-222@62j-sj2-xbk,Petsi Pies,42.371691,-71.086302,594 Cambridge St,Cambridge,MA,2141,US,Restaurants and Other Eating Places
zzw-222@62j-sjv-cnq,Chowhaus Graduate School Of Design,42.375586,-71.113753,48 Quincy St,Cambridge,MA,2138,US,Restaurants and Other Eating Places
22d-222@62j-sjv-9zz,Veggie Grill,42.372068,-71.120871,57 JFK St,Cambridge,MA,2138,US,Restaurants and Other Eating Places
22s-22f@62j-sjv-bc5,Le's Restaurant,42.372504,-71.119377,36 JFK St,Cambridge,MA,2138,US,Restaurants and Other Eating Places
22t-222@62j-sj2-t35,Asmara,42.366479999999996,-71.105064,739 Massachusetts Ave,Cambridge,MA,2139,US,Restaurants and Other Eating Places
23b-222@62j-sj2-rzf,New City Microcreamery,42.363667,-71.09998399999999,403 Massachusetts Ave,Cambridge,MA,2139,US,Restaurants and Other Eating Places
226-222@62j-sjv-q75,Forage,42.379088,-71.127093,5 Craigie Cir,Cambridge,MA,2138,US,Drinking Places (Alcoholic Beverages)
zzw-22f@62j-shx-k9f,Dough Life,42.368286,-71.076357,100 Cambridgeside Pl,Cambridge,MA,2141,US,Restaurants and Other Eating Places
223-223@62j-sjv-bc5,sweetgreen,42.372907,-71.120106,39 JFK St,Cambridge,MA,2138,US,Restaurants and Other Eating Places
227-222@62j-sjv-99f,Harvest,42.37372,-71.12182299999999,44 Brattle St,Cambridge,MA,2138,US,Restaurants and Other Eating Places
227-223@62j-sj2-7dv,Vincent's,42.367672999999996,-71.091185,233 Cardinal Medeiros Ave,Cambridge,MA,2141,US,Drinking Places (Alcoholic Beverages)
22f-222@62j-sj2-sdv,Craigie On Main,42.363521999999996,-71.09864,853 Main St,Cambridge,MA,2139,US,Restaurants and Other Eating Places
248-223@62j-sjv-b6k,OggiGourmet,42.372440999999995,-71.118977,30 Dunster St,Cambridge,MA,2138,US,Restaurants and Other Eating Places
zzw-222@62j-sgg-fs5,Starbucks,42.357996,-71.114939,750 Memorial Dr,Cambridge,MA,2139,US,Restaurants and Other Eating Places
zzw-222@62j-sjs-575,Chipotle Mexican Grill,42.389265,-71.14344,227 Alewife Brook Pkwy Spc B5,Cambridge,MA,2138,US,Restaurants and Other Eating Places
zzw-22b@62j-sj2-54v,Mamaleh's Delicatessen,42.368071,-71.093378,15 Hampshire St,Cambridge,MA,2139,US,Restaurants and Other Eating Places
zzw-22d@62j-sj2-p35,The Field,42.365837,-71.103528,20 Prospect St,Cambridge,MA,2139,US,Restaurants and Other Eating Places
223-222@62j-sjv-9xq,Winthrop Grille,42.370282,-71.11851899999999,32 Mill St,Cambridge,MA,2138,US,Restaurants and Other Eating Places
225-222@62j-sj2-t35,ABC Pizza House,42.366069,-71.105366,744 Massachusetts Ave,Cambridge,MA,2139,US,Restaurants and Other Eating Places
227-222@62j-sj2-rzf,Boston Chefs,42.363594,-71.098974,875 Main St,Cambridge,MA,2139,US,Restaurants and Other Eating Places
22q-222@62j-sk3-249,Wrapro Falafel & Grill,42.382065999999995,-71.119991,1670 Massachusetts Ave,Cambridge,MA,2138,US,Restaurants and Other Eating Places
23n-222@62j-sjv-jgk,Pizza Ring,42.364618,-71.110605,212 Western Ave,Cambridge,MA,2139,US,Restaurants and Other Eating Places
25v-223@62j-sj2-8gk,The Rising,42.373055,-71.09697299999999,1172 Cambridge St,Cambridge,MA,2139,US,Restaurants and Other Eating Places
zzw-222@62j-sj2-7dv,Tommy Doyles Irish Pub & Restaurant,42.367378,-71.090118,1 Kendall Sq Ste 100,Cambridge,MA,2139,US,Restaurants and Other Eating Places
222-224@62j-sj3-4d9,Clover Food Lab,42.362854,-71.087715,5 Cambridge Ctr,Cambridge,MA,2142,US,Restaurants and Other Eating Places
22x-222@62j-sk3-2c5,Poke City,42.383958,-71.119827,1722 Massachusetts Ave,Cambridge,MA,2138,US,Restaurants and Other Eating Places
28p-223@62j-sj2-p7q,Subway,42.365019000000004,-71.104427,4 Central Square Star Variety C Store,Cambridge,MA,2139,US,Restaurants and Other Eating Places
222-222@62j-sgg-kfz,Dunkin',42.360865999999994,-71.115436,808 Memorial Dr,Cambridge,MA,2139,US,Restaurants and Other Eating Places
223-223@62j-sj2-s3q,The Asgard,42.362634,-71.099471,350 Massachusetts Ave,Cambridge,MA,2139,US,Restaurants and Other Eating Places
22c-222@62j-sk2-zvf,Mix It Restaurant Sushi Bar,42.382397999999995,-71.119984,1678 Massachusetts Ave,Cambridge,MA,2138,US,Restaurants and Other Eating Places
235-222@62j-sjz-jqf,Dunkin',42.398697,-71.132186,2480 Massachusetts Ave,Cambridge,MA,2140,US,Restaurants and Other Eating Places
23q-222@62j-sj2-s5z,Brookline Lunch,42.363808,-71.101801,9 Brookline St,Cambridge,MA,2139,US,Restaurants and Other Eating Places
23r-223@62j-sjs-99f,Full Moon,42.3811,-71.138071,344 Huron Ave,Cambridge,MA,2138,US,Restaurants and Other Eating Places
223-222@62j-sj3-4d9,Legal Sea Foods,42.362829999999995,-71.087282,355 Main St,Cambridge,MA,2142,US,Restaurants and Other Eating Places
22w-223@62j-sjv-9zz,Aiyara Thai Cuisine,42.372103,-71.121411,16 Eliot St,Cambridge,MA,2138,US,Restaurants and Other Eating Places
233-222@62j-sjs-v75,Joe Sent Me,42.396805,-71.129918,2388 Massachusetts Ave,Cambridge,MA,2140,US,Drinking Places (Alcoholic Beverages)
243-222@62j-sjv-bc5,Russell House Tavern,42.373092,-71.119396,14 JFK St,Cambridge,MA,2138,US,Restaurants and Other Eating Places
23f-224@62j-sjv-b6k,Clover Food Lab,42.372895,-71.117919,1326 Massachusetts Ave,Cambridge,MA,2138,US,Restaurants and Other Eating Places
23q-222@62j-sj3-9fz,Bukowski Tavern,42.373641,-71.098753,1281 Cambridge St,Cambridge,MA,2139,US,Restaurants and Other Eating Places
zzy-222@62j-sj4-v9f,Sate Grill on Wheels,42.361317,-71.085981,70 Carleton St,Cambridge,MA,2142,US,Restaurants and Other Eating Places
228-223@62j-sj2-x89,Cafe Dilara,42.372141,-71.08711600000001,645 Cambridge St,Cambridge,MA,2141,US,Restaurants and Other Eating Places
233-222@62j-sj2-qcq,Rajdhani Express India Food & Spices,42.364127,-71.107514,80 River St,Cambridge,MA,2139,US,Restaurants and Other Eating Places
27g-223@62j-sj2-jqf,Dumpling House,42.368689,-71.10992399999999,950 Massachusetts Ave,Cambridge,MA,2139,US,Restaurants and Other Eating Places
zzw-223@62j-sk2-vs5,Dunkin',42.389362,-71.119548,1 White St,Cambridge,MA,2140,US,Restaurants and Other Eating Places
223-223@62j-sj2-d5f,Mexicali Burrito Co,42.363079,-71.092691,500 Technology Sq,Cambridge,MA,2139,US,Restaurants and Other Eating Places
zzw-222@62j-shx-td9,Art Bar,42.367183000000004,-71.074439,40 Edwin H Land Blvd,Cambridge,MA,2142,US,Restaurants and Other Eating Places
228-222@62j-sj2-s5z,Phoenix Landing,42.364027,-71.101967,512 Massachusetts Ave,Cambridge,MA,2139,US,Restaurants and Other Eating Places
zzy-222@62j-sj3-49z,Starbucks,42.363855,-71.08782,120 Broadway 6 Cambridge Center,Cambridge,MA,2142,US,Restaurants and Other Eating Places
22c-222@62j-sjv-hqz,Darwin's,42.368959999999994,-71.113676,31 Putnam Ave,Cambridge,MA,2139,US,Restaurants and Other Eating Places
22t-226@62j-sjy-7yv,Starbucks,42.375451,-71.149096,699 Mount Auburn St,Cambridge,MA,2138,US,Restaurants and Other Eating Places
23v-222@62j-sk2-v2k,Newtowne Grille,42.389719,-71.120012,1945 Massachusetts Ave,Cambridge,MA,2140,US,Restaurants and Other Eating Places
265-222@62j-sj2-89z,Momi Nonmi,42.372991999999996,-71.096118,1128 Cambridge St,Cambridge,MA,2139,US,Restaurants and Other Eating Places
265-223@62j-sgg-jvz,Dimitrios Cuisine,42.357364000000004,-71.107752,272 Brookline St,Cambridge,MA,2139,US,Restaurants and Other Eating Places
2dz-222@62j-sj3-2zf,B.GOOD,42.364305,-71.08403299999999,301 3rd St,Cambridge,MA,2142,US,Restaurants and Other Eating Places
zzw-222@62j-sj3-89z,Tupelo,42.373451,-71.097174,1193 Cambridge St,Cambridge,MA,2139,US,Restaurants and Other Eating Places
zzw-223@62j-sj2-s5z,La Fabrica Central,42.363580999999996,-71.101086,450 Massachusetts Ave,Cambridge,MA,2139,US,Restaurants and Other Eating Places
22p-222@62j-sj2-sdv,Bertucci's,42.363447,-71.097363,799 Main St,Cambridge,MA,2139,US,Restaurants and Other Eating Places
23n-222@62j-sjs-yqf,Talulla,42.383696,-71.134529,377 Walden St,Cambridge,MA,2138,US,Restaurants and Other Eating Places
24z-223@62j-sk3-649,Pho House,42.385965999999996,-71.119632,1790 Massachusetts Ave,Cambridge,MA,2140,US,Restaurants and Other Eating Places
228-223@62j-sj2-rzf,The Dial at 907 Main,42.363608,-71.099492,907 Main St,Cambridge,MA,2139,US,Restaurants and Other Eating Places
23f-223@62j-sj2-s5z,Clover Food Lab,42.363921000000005,-71.101676,496 Massachusetts Ave,Cambridge,MA,2139,US,Restaurants and Other Eating Places
zzw-223@62j-sj2-s3q,Miracle of Science Bar Grill,42.362611,-71.098646,321 Massachusetts Ave,Cambridge,MA,2139,US,Restaurants and Other Eating Places
22d-222@62j-sjy-94v,Noodle Stix,42.374947,-71.15063,11 Belmont St,Cambridge,MA,2138,US,Restaurants and Other Eating Places
23k-224@62j-sk2-tsq,McCabe's Bar and Grille,42.390956,-71.122877,2046 Massachusetts Ave,Cambridge,MA,2140,US,Restaurants and Other Eating Places
zzw-222@62j-sjv-9vf,Orinoco,42.371807000000004,-71.12020600000001,56 JFK St,Cambridge,MA,2138,US,Restaurants and Other Eating Places
zzw-22m@62j-shx-tjv,Pretzel Time,42.367825,-71.07629399999999,100 Cambridgeside Pl,Cambridge,MA,2141,US,Restaurants and Other Eating Places
zzw-22x@62j-shx-k9f,The Cheesecake Factory,42.368173,-71.076195,100 Cambridgeside Pl,Cambridge,MA,2141,US,Restaurants and Other Eating Places
22b-222@62j-sk2-zvf,Nirvana The Taste of India,42.382457,-71.119966,1680 Massachusetts Ave,Cambridge,MA,2138,US,Restaurants and Other Eating Places
22b-223@62j-sj3-5vf,The Similans,42.366363,-71.07819,145 1st St,Cambridge,MA,2142,US,Restaurants and Other Eating Places
22r-222@62j-sj2-t35,Mass Chicken,42.366040000000005,-71.10528000000001,736 Massachusetts Ave,Cambridge,MA,2139,US,Restaurants and Other Eating Places
zzw-222@62j-sgg-6zf,Flour Bakery Cafe,42.357745,-71.10427299999999,40 Erie St,Cambridge,MA,2139,US,Restaurants and Other Eating Places
zzw-227@62j-sj2-s5z,Veggie Galaxy,42.363651000000004,-71.10114200000001,450 Massachusetts Ave,Cambridge,MA,2139,US,Restaurants and Other Eating Places
226-223@62j-sj3-3nq,Flat Top Johnny's,42.36589,-71.091095,1 Kendall Sq,Cambridge,MA,2139,US,Restaurants and Other Eating Places
226-226@62j-sjv-bp9,Whole Heart Provisions,42.372695,-71.118836,1350 Massachusetts Ave,Cambridge,MA,2138,US,Restaurants and Other Eating Places
23p-222@62j-sj3-89z,Faialense Sport Club,42.373312,-71.095791,1121 Cambridge St,Cambridge,MA,2139,US,Restaurants and Other Eating Places
25v-222@62j-sj2-8gk,Hit Wicket,42.373067999999996,-71.09701,1172 Cambridge St,Cambridge,MA,2139,US,Restaurants and Other Eating Places
228-224@62j-sj2-x89,Silk Road Uyghur Cuisine,42.372122,-71.087128,645 Cambridge St,Cambridge,MA,2141,US,Restaurants and Other Eating Places
229-222@62j-sj2-s5z,Viale,42.363966,-71.10188000000001,502 Massachusetts Ave,Cambridge,MA,2139,US,Restaurants and Other Eating Places
226-22h@62j-sk2-vcq,Donya by Izakaya Ittoku,42.387192999999996,-71.118544,1815 Massachusetts Ave,Cambridge,MA,2140,US,Restaurants and Other Eating Places
29t-222@62j-sk3-649,Violette Gluten Free Bakery,42.385981,-71.119623,1786 Massachusetts Ave,Cambridge,MA,2140,US,Restaurants and Other Eating Places
zzw-229@62j-sjv-9mk,Lizzy's Ice Cream,42.374531,-71.12011899999999,29 Church St,Cambridge,MA,2138,US,Restaurants and Other Eating Places
22d-223@62j-sjv-9zz,Shilla Korean & Japanese Restaurant,42.372073,-71.120827,57 JFK St,Cambridge,MA,2138,US,Restaurants and Other Eating Places
234-222@62j-sj2-rc5,Carberry's Bakery & Coffee House,42.366781,-71.102404,74 Prospect St,Cambridge,MA,2139,US,Restaurants and Other Eating Places
238-222@62j-sjv-8qf,Mr Bartley's Gourmet Burgers,42.372417,-71.11612,1246 Massachusetts Ave,Cambridge,MA,2138,US,Restaurants and Other Eating Places
243-222@62j-sj2-s5z,ZuZu,42.36379,-71.101359,474 Massachusetts Ave,Cambridge,MA,2139,US,Restaurants and Other Eating Places
229-222@62j-sj3-4d9,CAVA,42.363101,-71.08785400000001,82 Ames St,Cambridge,MA,2142,US,Restaurants and Other Eating Places
22g-222@62j-sjr-zcq,Ma Magoo's Pizza & Sub Shop,42.388006,-71.142394,6 Concord Ln,Cambridge,MA,2138,US,Restaurants and Other Eating Places
22j-222@62j-sj2-c3q,Middlesex Lounge,42.362555,-71.098461,315 Massachusetts Ave,Cambridge,MA,2139,US,Drinking Places (Alcoholic Beverages)
25n-222@62j-sjs-v75,Umami,42.39665,-71.1297,2372 Massachusetts Ave,Cambridge,MA,2140,US,Restaurants and Other Eating Places
zzw-223@62j-sjv-85f,Pavement Coffeehouse,42.373076,-71.11872199999999,1350 Massachusetts Ave,Cambridge,MA,2138,US,Restaurants and Other Eating Places
222-222@62j-shx-k75,Haute Coffee,42.36971,-71.07701,1 Canal Park,Cambridge,MA,2141,US,Restaurants and Other Eating Places
23c-222@62j-sk2-vfz,Zoe Acai Bar & Juicery,42.388253999999996,-71.119623,1876 Massachusetts Ave,Cambridge,MA,2140,US,Restaurants and Other Eating Places
25v-224@62j-sjv-b6k,The Wrap,42.37314,-71.123368,71 Mount Auburn St,Cambridge,MA,2138,US,Restaurants and Other Eating Places
222-224@62j-sjs-54v,Bon Me Fresh Pond,42.39011,-71.142866,201 Alewife Brook Pkwy,Cambridge,MA,2138,US,Restaurants and Other Eating Places
zzw-225@62j-sjv-8y9,Cilantro,42.370878999999995,-71.113552,1105 Massachusetts Ave,Cambridge,MA,2138,US,Restaurants and Other Eating Places
zzy-222@62j-sjv-9zz,Shake Shack,42.372205,-71.121041,92 Winthrop St,Cambridge,MA,2138,US,Restaurants and Other Eating Places
226-228@62j-sk2-vcq,Cafe Mami,42.387262,-71.118638,1815 Massachusetts Ave,Cambridge,MA,2140,US,Restaurants and Other Eating Places
22b-222@62j-sj2-89z,Midwest Grill Brazilian BBQ,42.372932,-71.095978,1124 Cambridge St,Cambridge,MA,2139,US,Restaurants and Other Eating Places
22b-222@62j-sk2-y5f,Cafe Zing,42.389606,-71.11897900000001,25 White St,Cambridge,MA,2140,US,Restaurants and Other Eating Places
22h-222@62j-sj2-fmk,Sulmona,42.362782,-71.09388,608 Main St,Cambridge,MA,2139,US,Restaurants and Other Eating Places
23d-222@62j-sj2-rrk,Tite's Tropical Mart,42.366474,-71.100663,89 Norfolk St,Cambridge,MA,2139,US,Restaurants and Other Eating Places
245-223@62j-sjv-c5z,Starbucks,42.373862,-71.112971,468 Broadway,Cambridge,MA,2138,US,Restaurants and Other Eating Places
zzy-222@62j-sj2-vmk,Dumpling Xuan,42.37175,-71.084037,465 Cambridge St,Cambridge,MA,2141,US,Restaurants and Other Eating Places
zzy-222@62j-sjt-4y9,Dunkin',42.395742,-71.141396,5 Cambridgepark Dr Mbta,Cambridge,MA,2140,US,Restaurants and Other Eating Places
227-224@62j-sjv-b6k,The Smoke Shop Harvard Square,42.372484,-71.117852,8 Holyoke St,Cambridge,MA,2138,US,Restaurants and Other Eating Places
22g-222@62j-sj3-9mk,Punjabi Dhaba,42.373889,-71.100811,225 Hampshire St,Cambridge,MA,2139,US,Restaurants and Other Eating Places
22h-222@62j-sjv-9zz,Boston Tea Stop,42.37185,-71.120517,54 JFK St,Cambridge,MA,2138,US,Restaurants and Other Eating Places
23p-222@62j-sj2-t35,Shanghai Fresh,42.366465000000005,-71.104916,735 Massachusetts Ave,Cambridge,MA,2139,US,Restaurants and Other Eating Places
zzw-222@62j-sjs-54v,Taqueria,42.39008,-71.14290799999999,200 Alewife Brook Pkwy,Cambridge,MA,2138,US,Restaurants and Other Eating Places
226-22d@62j-sk2-vcq,Yume Ga Arukara,42.387293,-71.118475,1815 Massachusetts Ave,Cambridge,MA,2140,US,Restaurants and Other Eating Places
24k-223@62j-sj2-qj9,Beantown Taqueria Cafe,42.364783,-71.108787,150 Western Ave,Cambridge,MA,2139,US,Restaurants and Other Eating Places
27h-222@62j-sj2-qcq,Cambridge Deli & Grill,42.364093,-71.10769300000001,90 River St,Cambridge,MA,2139,US,Restaurants and Other Eating Places
zzw-224@62j-sjv-8y9,Boston Burger Company,42.370905,-71.11358,1105 Massachusetts Ave,Cambridge,MA,2138,US,Restaurants and Other Eating Places
zzw-22c@62j-sj2-54v,The Bar By the Elevator,42.366084,-71.090843,17 Hampshire St,Cambridge,MA,2139,US,Drinking Places (Alcoholic Beverages)
222-224@62j-sjv-brk,Greenhouse Cafe,42.376383000000004,-71.116635,1 Oxford St,Cambridge,MA,2138,US,Restaurants and Other Eating Places
226-223@62j-sjv-9mk,SOURCE Restaurant,42.374514000000005,-71.12001500000001,27 Church St,Cambridge,MA,2138,US,Restaurants and Other Eating Places
22c-222@62j-sjv-9mk,Liquiteria,42.374301,-71.119091,1440 Massachusetts Ave,Cambridge,MA,2138,US,Restaurants and Other Eating Places
zzw-223@62j-sjv-9zz,Gyu-Kaku,42.372084,-71.121414,16 18 Eliot St 2nd Floor,Cambridge,MA,2138,US,Restaurants and Other Eating Places
2by-222@62j-shx-kcq,Finagle A Bagel,42.37042,-71.077232,11 1st St,Cambridge,MA,2141,US,Restaurants and Other Eating Places
zzw-227@62j-sj2-9cq,Sal's Mobile,42.359246999999996,-71.093127,77 Massachusetts Ave,Cambridge,MA,2139,US,Restaurants and Other Eating Places
222-222@62j-sk3-2c5,Changsho,42.383525,-71.119887,1712 Massachusetts Ave,Cambridge,MA,2138,US,Restaurants and Other Eating Places
224-222@62j-sk3-2x5,Northwest Cafe,42.379987,-71.11534,52 Oxford St,Cambridge,MA,2138,US,Restaurants and Other Eating Places
237-222@62j-sjs-v75,Suvaai,42.396706,-71.12989499999999,2378 Massachusetts Ave,Cambridge,MA,2140,US,Restaurants and Other Eating Places
23h-222@62j-sjs-yqf,Concord Avenue Cafe,42.383702,-71.134112,294 Concord Ave,Cambridge,MA,2138,US,Restaurants and Other Eating Places
24j-224@62j-sjz-k4v,Season To Go,42.39835,-71.131022,2447 Massachusetts Ave,Cambridge,MA,2140,US,Restaurants and Other Eating Places
253-222@62j-shx-j7q,Olive Cafe,42.371827,-71.079453,43 Gore St,Cambridge,MA,2141,US,Restaurants and Other Eating Places
25j-223@62j-sj2-hkf,Taqueria,42.368123,-71.10239399999999,115 Prospect St,Cambridge,MA,2139,US,Restaurants and Other Eating Places
zzw-222@62j-sj4-rp9,The Muddy Charles Pub at MIT,42.359176,-71.088217,142 Memorial Dr,Cambridge,MA,2142,US,Drinking Places (Alcoholic Beverages)
zzw-22j@62j-shx-tjv,Zing Bowl,42.368019,-71.075326,100 Cambridgeside Pl,Cambridge,MA,2141,US,Restaurants and Other Eating Places
223-226@62j-sj2-ckf,Anna's Taqueria,42.359047,-71.094765,84 Massachusetts Ave,Cambridge,MA,2139,US,Restaurants and Other Eating Places
22d-227@62j-sjv-9zz,Shabu Ya,42.372078,-71.120837,57 JFK St,Cambridge,MA,2138,US,Restaurants and Other Eating Places
22j-224@62j-sj2-4qf,Atasca,42.366743,-71.092646,50 Hampshire St,Cambridge,MA,2139,US,Restaurants and Other Eating Places
23z-223@62j-sj2-q2k,The Nu Do' Society,42.364033,-71.108712,125 River St,Cambridge,MA,2139,US,Restaurants and Other Eating Places
zzw-227@62j-sjv-9mk,Felipe's Taqueria,42.373546000000005,-71.120532,21 Brattle St,Cambridge,MA,2138,US,Restaurants and Other Eating Places
zzw-232@62j-shx-k9f,P.F. Chang's China Bistro,42.367177000000005,-71.07568,100 Cambridgeside Pl Spc C101,Cambridge,MA,2141,US,Restaurants and Other Eating Places
zzy-226@62j-sj2-jn5,Sakana,42.369345,-71.110752,983 Massachusetts Ave,Cambridge,MA,2138,US,Restaurants and Other Eating Places
222-222@62j-sj3-3bk,Fuji At Kendall,42.365244,-71.08233299999999,300 3rd St,Cambridge,MA,2142,US,Restaurants and Other Eating Places
24k-222@62j-sj2-qj9,Bab Al Amoud Cafe,42.364793,-71.108774,150 Western Ave,Cambridge,MA,2139,US,Restaurants and Other Eating Places
25w-226@62j-sjv-j35,Dunkin',42.369628000000006,-71.1114,1001 Massachusetts Ave,Cambridge,MA,2138,US,Restaurants and Other Eating Places
zzw-222@62j-sj2-wx5,Loyal Nine,42.371876,-71.087598,660 Cambridge St,Cambridge,MA,2141,US,Restaurants and Other Eating Places
225-222@62j-sj2-ygk,McDonald's,42.373709999999996,-71.082864,14 McGrath Hwy,Cambridge,MA,2143,US,Restaurants and Other Eating Places
229-222@62j-sj2-s3q,Pagu,42.362334999999995,-71.099042,310 Massachusetts Ave,Cambridge,MA,2139,US,Restaurants and Other Eating Places
22t-222@62j-sj2-p35,Chipotle Mexican Grill,42.364796000000005,-71.10324200000001,598 Massachusetts Ave,Cambridge,MA,2139,US,Restaurants and Other Eating Places
24m-222@62j-sjv-bc5,Uno Pizzeria & Grill,42.37299,-71.119629,22 JFK St,Cambridge,MA,2138,US,Restaurants and Other Eating Places
227-222@62j-sjv-8qf,Santouka Harvard Square,42.372208,-71.115966,1 Bow St,Cambridge,MA,2138,US,Restaurants and Other Eating Places
2hg-222@62j-sj2-jjv,The Plough & Stars,42.368210999999995,-71.10884399999999,912 Massachusetts Ave,Cambridge,MA,2139,US,Restaurants and Other Eating Places
zzw-222@62j-sj3-5xq,Desfina Restaurant,42.367536,-71.080956,202 3rd St,Cambridge,MA,2141,US,Restaurants and Other Eating Places
zzy-225@62j-sj2-qj9,Bab Al Amoud,42.364778,-71.108798,148 Western Ave # 150,Cambridge,MA,2139,US,Restaurants and Other Eating Places
222-222@62j-sj2-bzf,Saloniki Greek,42.361098,-71.095823,181 Massachusetts Ave,Cambridge,MA,2139,US,Restaurants and Other Eating Places
223-222@62j-sgg-kfz,Baraka Cafe,42.361149,-71.115516,812 Memorial Dr,Cambridge,MA,2139,US,Restaurants and Other Eating Places
228-222@62j-sjs-575,Genki Ya Cambridge,42.389216,-71.143487,231 Alewife Brook Pkwy,Cambridge,MA,2138,US,Restaurants and Other Eating Places
23y-222@62j-sj2-syv,Life Alive,42.366709,-71.105369,765 Massachusetts Ave,Cambridge,MA,2139,US,Restaurants and Other Eating Places
2dj-222@62j-sj2-p7q,Havana Club,42.364748999999996,-71.10448000000001,288 Green St,Cambridge,MA,2139,US,Drinking Places (Alcoholic Beverages)
22j-223@62j-sj2-6zf,ORALE Paco's Mexican Grill,42.372614,-71.090856,847 Cambridge St,Cambridge,MA,2141,US,Restaurants and Other Eating Places
23k-223@62j-sjv-99f,Bluestone Lane,42.373492999999996,-71.120642,27 Brattle St,Cambridge,MA,2138,US,Restaurants and Other Eating Places
23y-222@62j-sj3-9fz,Wit's End,42.373257,-71.09843199999999,1248 Cambridge St,Cambridge,MA,2139,US,Restaurants and Other Eating Places
244-222@62j-sjs-v4v,Frank's Steak House,42.395359,-71.128283,2310 Massachusetts Ave,Cambridge,MA,2140,US,Restaurants and Other Eating Places
24t-223@62j-sjv-9zz,Falafel Corner,42.372507,-71.12151800000001,8 Eliot St,Cambridge,MA,2138,US,Restaurants and Other Eating Places
254-222@62j-shx-jgk,Courtside,42.37126,-71.080774,299 Cambridge St,Cambridge,MA,2141,US,Restaurants and Other Eating Places
25c-223@62j-sj4-vmk,Rebecca's Cafe,42.362159999999996,-71.085714,290 Main St,Cambridge,MA,2142,US,Restaurants and Other Eating Places
263-222@62j-sj2-s89,Mariposa Bakery,42.363335,-71.100716,424 Massachusetts Ave,Cambridge,MA,2139,US,Restaurants and Other Eating Places
zzw-222@62j-sj4-vcq,Clover Food Lab,42.360684,-71.086093,20 Carleton St,Cambridge,MA,2142,US,Restaurants and Other Eating Places
226-227@62j-sj3-3nq,The Blue Room,42.366448999999996,-71.09083299999999,1 Kendall Sq Ste 200,Cambridge,MA,2139,US,Restaurants and Other Eating Places
23w-222@62j-sj2-4vz,Dunkin',42.366428000000006,-71.094095,222 Broadway,Cambridge,MA,2139,US,Restaurants and Other Eating Places
24j-224@62j-sj2-vs5,CurryThai Restaurant,42.371964,-71.085734,569 Cambridge St,Cambridge,MA,2141,US,Restaurants and Other Eating Places
zzw-222@62j-sk3-35z,Cabot Cafe,42.381995,-71.124032,60 Linnaean St,Cambridge,MA,2138,US,Restaurants and Other Eating Places
zzw-227@62j-shx-k9f,Sarku Japan,42.368587,-71.076437,100 Cambridgeside Pl # 119,Cambridge,MA,2141,US,Restaurants and Other Eating Places
23d-222@62j-sjv-ndv,Darwin's,42.373987,-71.125096,148 Mount Auburn St,Cambridge,MA,2138,US,Restaurants and Other Eating Places
zzw-235@62j-shx-k9f,World of Beer,42.36724,-71.07651,100 Cambridgeside Pl,Cambridge,MA,2141,US,Restaurants and Other Eating Places
23t-222@62j-sgg-j7q,Black Sheep Market,42.360193,-71.11013,101 Magazine St,Cambridge,MA,2139,US,Restaurants and Other Eating Places
26w-222@62j-sj2-5s5,Bondir Cambridge,42.36826,-71.097791,279A Broadway,Cambridge,MA,2139,US,Restaurants and Other Eating Places
zzw-222@62j-sk2-vpv,Wafu Ya,42.387219,-71.118225,1815 Massachusetts Ave,Cambridge,MA,2140,US,Restaurants and Other Eating Places
zzw-225@62j-sgg-kvf,Genji Sushi Bars,42.360997,-71.11394399999999,340 River St,Cambridge,MA,2139,US,Restaurants and Other Eating Places
zzy-222@62j-sk2-w8v,Bapas Boston,42.391748,-71.124422,2116 Massachusetts Ave,Cambridge,MA,2140,US,Restaurants and Other Eating Places
223-229@62j-sj2-ckf,Shinkansen,42.359027000000005,-71.094737,84 Massachusetts Ave,Cambridge,MA,2139,US,Restaurants and Other Eating Places
24m-222@62j-sk3-59f,The Little Crepe Cafe,42.383144,-71.115988,102 Oxford St,Cambridge,MA,2138,US,Restaurants and Other Eating Places
263-222@62j-sj3-9s5,Christina's Homemade Ice Cream,42.373614,-71.098439,1255 Cambridge St,Cambridge,MA,2139,US,Restaurants and Other Eating Places
zzw-222@62j-sj2-54v,State Park,42.36615,-71.090746,1 Kendall Sq Bldg 300,Cambridge,MA,2139,US,Restaurants and Other Eating Places
zzw-222@62j-sj3-5mk,sweetgreen,42.366943,-71.080895,222 3rd St,Cambridge,MA,2142,US,Restaurants and Other Eating Places
22t-222@62j-sj2-sqz,Andala Coffee House,42.364708,-71.105739,286 Franklin St,Cambridge,MA,2139,US,Restaurants and Other Eating Places
24y-222@62j-sj2-4sq,Amelias Trattoria,42.365031,-71.092656,111 Harvard St,Cambridge,MA,2139,US,Restaurants and Other Eating Places
25w-223@62j-sjv-j35,VO2 Vegan Cafe,42.369631,-71.111188,1001 Massachusetts Ave,Cambridge,MA,2138,US,Restaurants and Other Eating Places
26n-224@62j-sjv-j7q,Cafe Sushi,42.370568,-71.11335799999999,1105 Massachusetts Ave,Cambridge,MA,2138,US,Restaurants and Other Eating Places
zzw-223@62j-sj2-d5f,Catalyst Restaurant,42.363027,-71.091578,300 Technology Sq,Cambridge,MA,2139,US,Restaurants and Other Eating Places
zzw-22m@62j-shx-k9f,Chiang Mai Thai,42.368429,-71.076617,100 Cambridgeside Pl,Cambridge,MA,2141,US,Restaurants and Other Eating Places
226-222@62j-shx-68v,Lingo Bar & Grill,42.369859000000005,-71.06882399999999,8 Education St,Cambridge,MA,2141,US,Restaurants and Other Eating Places
227-222@62j-sj3-49z,Ames Street Deli,42.363226,-71.088224,73 Ames St,Cambridge,MA,2142,US,Restaurants and Other Eating Places
zzw-222@62j-sj3-2c5,Discovery Cafe,42.366646,-71.086437,157 6th St,Cambridge,MA,2142,US,Restaurants and Other Eating Places
zzw-226@62j-sjv-8jv,BerryLine,42.371266999999996,-71.114633,3 Arrow St,Cambridge,MA,2138,US,Restaurants and Other Eating Places
zzw-236@62j-shx-k9f,Thai Accent Cambridge,42.368134000000005,-71.07624399999999,100 Cambridgeside Pl,Cambridge,MA,2141,US,Restaurants and Other Eating Places
zzy-222@62j-shx-gx5,The Lexington at the Picnic Grove,42.372033,-71.074617,219 Jacobs St,Cambridge,MA,2141,US,Restaurants and Other Eating Places
223-227@62j-sj2-ckf,Shawarma Shack,42.359095,-71.09461800000001,84 Massachusetts Ave,Cambridge,MA,2139,US,Restaurants and Other Eating Places
22c-222@62j-sj2-6zf,The Sunset Cafe,42.372668,-71.090985,851 Cambridge St,Cambridge,MA,2141,US,Restaurants and Other Eating Places
255-222@62j-sj2-5zz,Camie's Bakery & Restaurant,42.366812,-71.09777700000001,152 Columbia St,Cambridge,MA,2139,US,Restaurants and Other Eating Places
zzw-222@62j-shx-qxq,Lily P's,42.364905,-71.07865699999999,50 Binney St Ste 1,Cambridge,MA,2142,US,Restaurants and Other Eating Places
zzw-222@62j-sjv-975,Dunkin',42.374189,-71.121151,61 Church St,Cambridge,MA,2138,US,Restaurants and Other Eating Places
zzy-224@62j-sjv-85f,Dunkin',42.373371,-71.118965,Harvard Mbta Station,Cambridge,MA,2138,US,Restaurants and Other Eating Places
222-222@62j-sj3-5vf,Toscanini's Ice Cream,42.366118,-71.07826899999999,159 1st St,Cambridge,MA,2142,US,Restaurants and Other Eating Places
224-226@62j-sjr-z75,Casbah,42.387876,-71.14039100000001,26 New St,Cambridge,MA,2138,US,Restaurants and Other Eating Places
22b-223@62j-sk2-zvf,West Side Lounge,42.382428999999995,-71.119996,1680 Massachusetts Ave,Cambridge,MA,2138,US,Restaurants and Other Eating Places
zzw-222@62j-sj3-3qz,Bon Me One Kendall Square,42.365551,-71.09015699999999,1 Kendall Sq,Cambridge,MA,2139,US,Restaurants and Other Eating Places
223-222@62j-sk3-66k,The Half Shell,42.385222,-71.119652,1760 Massachusetts Ave Ste A,Cambridge,MA,2140,US,Restaurants and Other Eating Places
223-224@62j-sj2-d5f,Mex Taqueria & Bar,42.363169,-71.092664,500 Technology Sq,Cambridge,MA,2139,US,Restaurants and Other Eating Places
227-222@62j-sj2-bx5,Chicago Pizza,42.361745,-71.097077,239 Massachusetts Ave,Cambridge,MA,2139,US,Restaurants and Other Eating Places
229-222@62j-sj2-vs5,East Side Bar & Grille,42.371982,-71.085646,561 Cambridge St,Cambridge,MA,2141,US,Restaurants and Other Eating Places
22m-222@62j-sk3-2c5,Baraka,42.384101,-71.119812,1728 Massachusetts Ave,Cambridge,MA,2138,US,Restaurants and Other Eating Places
22w-222@62j-sjv-bc5,Pressed Juicery,42.373276000000004,-71.119212,1380 Massachusetts Ave,Cambridge,MA,2138,US,Restaurants and Other Eating Places
23g-222@62j-sjv-99f,Flat Patties,42.373637,-71.120884,33 Brattle St,Cambridge,MA,2138,US,Restaurants and Other Eating Places
2k3-222@62j-sj2-jjv,Mass Ave Diner,42.368157000000004,-71.108699,906 Massachusetts Ave,Cambridge,MA,2139,US,Restaurants and Other Eating Places
224-222@62j-sk2-tqf,Colette Wine Bistro,42.389247,-71.120337,1924 Massachusetts Ave,Cambridge,MA,2140,US,Restaurants and Other Eating Places
222-222@62j-sj3-33q,Firebrand Saints,42.362485,-71.083315,1 Broadway,Cambridge,MA,2142,US,Drinking Places (Alcoholic Beverages)
224-222@62j-sj2-p35,Rangzen Tibetan Place,42.364156,-71.102968,24 Pearl St,Cambridge,MA,2139,US,Restaurants and Other Eating Places
238-222@62j-sjs-v75,Sheger Cafe,42.396658,-71.12975,2376 Massachusetts Ave,Cambridge,MA,2140,US,Restaurants and Other Eating Places
zzw-228@62j-sj2-p35,Sapporo Ramen,42.365032,-71.102756,581 Massachusetts Ave,Cambridge,MA,2139,US,Restaurants and Other Eating Places
222-223@62j-sj3-33q,Dunkin',42.362829,-71.083961,1 Broadway,Cambridge,MA,2142,US,Restaurants and Other Eating Places
222-226@62j-sjv-brk,Clover Food Lab,42.376407,-71.116621,1 Oxford St,Cambridge,MA,2138,US,Restaurants and Other Eating Places
225-222@62j-sjv-qmk,Nubar,42.377187,-71.122917,16 Garden St,Cambridge,MA,2138,US,Restaurants and Other Eating Places
23f-222@62j-sjv-b6k,Clover HSQ,42.372895,-71.117919,1326 Massachusetts Ave,Cambridge,MA,2138,US,Restaurants and Other Eating Places
243-222@62j-sjt-kxq,Benedetto,42.372301,-71.1229,1 Bennett St,Cambridge,MA,2138,US,Restaurants and Other Eating Places
252-222@62j-sk3-45f,Stoked Pizza Company Cambridge,42.380134999999996,-71.119614,1611 Massachusetts Ave,Cambridge,MA,2138,US,Restaurants and Other Eating Places
zzw-222@62j-sk2-tsq,Third Eye,42.391248,-71.123483,2088 Massachusetts Ave,Cambridge,MA,2140,US,Restaurants and Other Eating Places
zzy-224@62j-sj2-75z,Muqueca Restaurant,42.372665000000005,-71.093889,1008 Cambridge St,Cambridge,MA,2141,US,Restaurants and Other Eating Places
226-229@62j-sk2-vcq,I Love Sushi,42.387104,-71.118845,1815 Massachusetts Ave,Cambridge,MA,2140,US,Restaurants and Other Eating Places
23k-222@62j-sjv-99f,Crema Cafe,42.373633,-71.120683,27 Brattle St,Cambridge,MA,2138,US,Restaurants and Other Eating Places
222-223@62j-sj3-2x5,Tatte Bakery & Cafe,42.3622,-71.0814,101 Main St,Cambridge,MA,2142,US,Restaurants and Other Eating Places
24r-222@62j-sjs-zmk,Trattoria Pulcinella,42.382759,-71.130809,147 Huron Ave,Cambridge,MA,2138,US,Restaurants and Other Eating Places
zzw-223@62j-sk2-vpv,Sapporo Ramen,42.387351,-71.11843499999999,1815 Massachusetts Ave,Cambridge,MA,2140,US,Restaurants and Other Eating Places
zzy-222@62j-sj3-3bk,Tatte Bakery & Cafe,42.364909999999995,-71.08259,318 3rd St,Cambridge,MA,2142,US,Restaurants and Other Eating Places
23s-222@62j-sj2-435,Checkraise,42.368856,-71.095125,92 Hampshire St,Cambridge,MA,2139,US,Restaurants and Other Eating Places
287-222@62j-sj2-vzz,Le's Sushi Bar & Restaurant,42.37161,-71.08325400000001,425 Cambridge St,Cambridge,MA,2141,US,Restaurants and Other Eating Places
223-222@62j-sj2-m49,City Girl Cafe,42.373096999999994,-71.100335,204 Hampshire St,Cambridge,MA,2139,US,Restaurants and Other Eating Places
23k-223@62j-sk2-tsq,The Dubliner Pub,42.390776,-71.122621,2046 Massachusetts Ave,Cambridge,MA,2140,US,Drinking Places (Alcoholic Beverages)
227-222@62j-sj2-7dv,Cafe du Pays,42.367701000000004,-71.091149,233 Cardinal Medeiros Ave,Cambridge,MA,2141,US,Restaurants and Other Eating Places
23y-222@62j-sjv-bc5,Tasty Burger,42.372585,-71.119869,40 JFK St,Cambridge,MA,2138,US,Restaurants and Other Eating Places
24j-222@62j-sj2-vs5,Pandan Leaf,42.371945000000004,-71.085728,569 Cambridge St,Cambridge,MA,2141,US,Restaurants and Other Eating Places
23s-222@62j-sj2-mkz,Mona Lisa Pizza & Grill,42.374947999999996,-71.10911899999999,1621 Cambridge St,Cambridge,MA,2138,US,Restaurants and Other Eating Places
222-223@62j-sjv-brk,Bon Me Harvard Truck,42.37644,-71.116827,1 Oxford St,Cambridge,MA,2138,US,Restaurants and Other Eating Places
26y-222@62j-sj2-pd9,Bytes At University Park,42.361072,-71.10116500000001,64 Sidney St Ste 1,Cambridge,MA,2139,US,Restaurants and Other Eating Places
zzw-223@62j-sjs-575,Starbucks,42.388896,-71.142427,222 Alewife Brook Pkwy,Cambridge,MA,2138,US,Restaurants and Other Eating Places
224-222@62j-sjv-b6k,Spicies Cambridge,42.372181,-71.11829200000001,24 Holyoke St,Cambridge,MA,2138,US,Restaurants and Other Eating Places
22d-222@62j-sjv-8qf,Grafton Street,42.372303,-71.116061,1230 Massachusetts Ave,Cambridge,MA,2138,US,Restaurants and Other Eating Places
22d-228@62j-sjv-9zz,Bonchon,42.372085999999996,-71.120826,57 JFK St,Cambridge,MA,2138,US,Restaurants and Other Eating Places
23n-224@62j-sjs-yqf,Self Portrait,42.383744,-71.134468,377 Walden St,Cambridge,MA,2138,US,Restaurants and Other Eating Places
zzy-222@62j-sj4-4n5,The Harvard Bridge,42.35474,-71.091404,Massachusetts Ave Bridge,Cambridge,MA,2139,US,Restaurants and Other Eating Places
225-223@62j-sj3-3bk,Mother Juice,42.364512,-71.082035,625 W Kendall St,Cambridge,MA,2142,US,Restaurants and Other Eating Places
226-222@62j-sjv-bp9,Swissbakers,42.37252,-71.11871,1350 Massachusetts Ave,Cambridge,MA,2138,US,Restaurants and Other Eating Places
25w-224@62j-sjv-j35,Flame Hot Pot & Sushi,42.369519,-71.111216,1001 Massachusetts Ave,Cambridge,MA,2138,US,Restaurants and Other Eating Places
225-222@62j-sjs-d35,Burger King,42.39049,-71.150472,679 Concord Ave,Cambridge,MA,2138,US,Restaurants and Other Eating Places
265-223@62j-sj2-89z,WUBurger Gourmet,42.372949,-71.09611899999999,1128 Cambridge St,Cambridge,MA,2139,US,Restaurants and Other Eating Places
zzw-225@62j-sj3-5vf,Shabu & Mein,42.366444,-71.077742,148 1st St,Cambridge,MA,2142,US,Restaurants and Other Eating Places
zzy-225@62j-shx-k9f,Gong Cha,42.368146,-71.076374,Cambridgeside Mall 100 Cambridgeside Pl,Cambridge,MA,2141,US,Restaurants and Other Eating Places
zzy-225@62j-sj2-jn5,Cafe Anthony,42.369328,-71.11075,983 Massachusetts Ave,Cambridge,MA,2138,US,Restaurants and Other Eating Places
223-222@62j-sj2-ffz,Primo Pizza & Roast Beef,42.363395000000004,-71.096884,783 Main St,Cambridge,MA,2139,US,Restaurants and Other Eating Places
224-222@62j-sj2-bzf,Paradise Bar,42.360839,-71.09639,180 Massachusetts Ave,Cambridge,MA,2139,US,Drinking Places (Alcoholic Beverages)
228-224@62j-sjv-9zz,Nine Tastes,42.372004,-71.120343,50 JFK St,Cambridge,MA,2138,US,Restaurants and Other Eating Places
23k-224@62j-sgg-j7q,Cafe Spice MIT,42.35988,-71.10998000000001,114 Magazine St,Cambridge,MA,2139,US,Restaurants and Other Eating Places
24g-222@62j-sjv-99f,The Longfellow Bar,42.373518,-71.12155600000001,40 Brattle St Ste 3,Cambridge,MA,2138,US,Drinking Places (Alcoholic Beverages)
zzw-222@62j-sj3-2tv,Shanti Restaurant Cambridge,42.363486,-71.082828,7 Broad Canal Way,Cambridge,MA,2142,US,Restaurants and Other Eating Places
223-222@62j-sjt-4y9,Bertucci's Italian Restaurant,42.395624,-71.14187199999999,5 Cambridgepark Dr,Cambridge,MA,2140,US,Restaurants and Other Eating Places
226-22g@62j-sk2-vcq,Japonaise Bakery & Cafe,42.387127,-71.118832,1815 Massachusetts Ave,Cambridge,MA,2140,US,Restaurants and Other Eating Places
22f-222@62j-sj3-5vf,Helmand Restaurant,42.366473,-71.078164,143 1st St,Cambridge,MA,2142,US,Restaurants and Other Eating Places
222-223@62j-shx-jy9,Christine's,42.368215,-71.07772299999999,91 1st St,Cambridge,MA,2141,US,Restaurants and Other Eating Places
223-222@62j-sjv-9zz,The Red House,42.372316,-71.121286,98 Winthrop St,Cambridge,MA,2138,US,Restaurants and Other Eating Places
22j-222@62j-sj2-4qf,The Automatic Food & Drink,42.366663,-71.092562,50 Hampshire St,Cambridge,MA,2139,US,Restaurants and Other Eating Places
255-222@62j-sj2-835,Oleana Restaurant,42.370543,-71.09718000000001,134 Hampshire St,Cambridge,MA,2139,US,Restaurants and Other Eating Places
zzw-224@62j-sj3-3bk,Abigail's Restaurant,42.364793,-71.08313100000001,291 3rd St,Cambridge,MA,2142,US,Restaurants and Other Eating Places
zzw-22k@62j-shx-k9f,Surya Indian Kitchen,42.368663,-71.076589,100 Cambridgeside Pl,Cambridge,MA,2141,US,Restaurants and Other Eating Places
253-222@62j-sk3-66k,Simon's Coffee Shop,42.384488,-71.11983000000001,1736 Massachusetts Ave,Cambridge,MA,2138,US,Restaurants and Other Eating Places
27z-222@62j-sj2-8gk,Al Hoda Market,42.372732,-71.098394,304 Prospect St,Cambridge,MA,2139,US,Restaurants and Other Eating Places
zzw-222@62j-sjv-bc5,Tealuxe,42.373241,-71.119968,0 Brattle St,Cambridge,MA,2138,US,Restaurants and Other Eating Places
222-222@62j-sjv-975,Toscano,42.374203,-71.122099,52 Brattle St,Cambridge,MA,2138,US,Restaurants and Other Eating Places
24s-224@62j-sjs-zmk,La Royal,42.3829,-71.131553,221 Concord Ave,Cambridge,MA,2138,US,Restaurants and Other Eating Places
zzw-224@62j-sj2-b49,Savory Food,42.359126,-71.092975,77 Massachusetts Ave,Cambridge,MA,2139,US,Restaurants and Other Eating Places
zzw-225@62j-sj2-p35,Go! Go! Curry! America,42.365034,-71.102754,581 Massachusetts Ave Inside of Hmart,Cambridge,MA,2139,US,Restaurants and Other Eating Places
zzy-222@62j-sj3-2kz,3rd and Binney Civic Space,42.365879,-71.082512,Third St,Cambridge,MA,2142,US,Restaurants and Other Eating Places
225-222@62j-sjv-8sq,Daedalus Restaurant & Pub,42.371328999999996,-71.11647099999999,45 1/2 Mount Auburn St,Cambridge,MA,2138,US,Restaurants and Other Eating Places
23q-222@62j-sj2-p35,Pepper Sky's Thai Sensation,42.364217,-71.102907,20 Pearl St,Cambridge,MA,2139,US,Restaurants and Other Eating Places
22c-222@62j-sj3-9mk,The Druid,42.373813,-71.100153,1357 Cambridge St,Cambridge,MA,2139,US,Drinking Places (Alcoholic Beverages)
22z-222@62j-sjv-9mk,Dado Tea,42.374140999999995,-71.120671,50 Church St,Cambridge,MA,2138,US,Restaurants and Other Eating Places
222-22n@62j-sj3-33q,Dig Inn,42.362862,-71.08381800000001,1 Broadway,Cambridge,MA,2142,US,Restaurants and Other Eating Places
225-222@62j-sj3-3bk,Leisure Station,42.364481,-71.082227,625 W Kendall St,Cambridge,MA,2142,US,Restaurants and Other Eating Places
229-222@62j-sj2-6zf,Atwood's Tavern,42.372721000000006,-71.091448,877 Cambridge St,Cambridge,MA,2141,US,Restaurants and Other Eating Places
22p-222@62j-sk3-2c5,Harvard House Of Pizza,42.383291,-71.11983599999999,1706 Massachusetts Ave,Cambridge,MA,2138,US,Restaurants and Other Eating Places
22w-222@62j-sjv-9zz,IHOP,42.372119,-71.121443,16 Eliot St,Cambridge,MA,2138,US,Restaurants and Other Eating Places
23p-222@62j-sj2-5j9,Koreana,42.369071999999996,-71.100965,158 Prospect St,Cambridge,MA,2139,US,Restaurants and Other Eating Places
zzy-222@62j-sjv-8qf,Hokkaido Ramen Santouka,42.372198,-71.116039,1230 Massachusetts Avenue One Bow Street,Cambridge,MA,2138,US,Restaurants and Other Eating Places
226-227@62j-sk2-vcq,Ittyo Restaurant,42.38726,-71.118662,1815 Massachusetts Ave,Cambridge,MA,2140,US,Restaurants and Other Eating Places
22b-222@62j-sjv-qvf,Prasadam,42.376293,-71.124261,99 Brattle St,Cambridge,MA,2138,US,Restaurants and Other Eating Places
23c-222@62j-sgg-k75,Cambridge Pizzeria,42.357690999999996,-71.10788199999999,263 Brookline St,Cambridge,MA,2139,US,Restaurants and Other Eating Places
23n-222@62j-sjv-bc5,John Harvard's Brewery & Ale House,42.372547,-71.11931,33 Dunster St,Cambridge,MA,2138,US,Restaurants and Other Eating Places
246-223@62j-sj3-9fz,Ginger Exchange,42.373661,-71.098946,1287 Cambridge St,Cambridge,MA,2139,US,Restaurants and Other Eating Places
zzw-223@62j-sk2-v9f,Shaking Crab Cambridge,42.387592,-71.118953,1815 Massachusetts Ave,Cambridge,MA,2140,US,Restaurants and Other Eating Places
243-22c@62j-sjt-kxq,Rialto,42.372275,-71.122901,1 Bennett St,Cambridge,MA,2138,US,Restaurants and Other Eating Places
zzw-226@62j-sj2-s5z,Moksa Restaurant,42.36358,-71.10114499999999,450 Massachusetts Ave,Cambridge,MA,2139,US,Restaurants and Other Eating Places
223-223@62j-sj3-3bk,PlantPub,42.364672999999996,-71.08196099999999,675 W Kendall St,Cambridge,MA,2142,US,Restaurants and Other Eating Places
224-223@62j-sj2-rkz,Moge Tee Cambridge,42.365216,-71.10292199999999,605 Massachusetts Ave,Cambridge,MA,2139,US,Restaurants and Other Eating Places
227-222@62j-sj3-2tv,Glass House,42.363372999999996,-71.081453,450 Kendall St,Cambridge,MA,2142,US,Restaurants and Other Eating Places
22g-222@62j-sjs-tqf,Greek Corner Restaurant,42.396425,-71.12957800000001,2366 Massachusetts Ave,Cambridge,MA,2140,US,Restaurants and Other Eating Places
22x-224@62j-sj3-9mk,Playska,42.374151,-71.101138,243 Hampshire St,Cambridge,MA,2139,US,Restaurants and Other Eating Places
226-222@62j-sj2-rff,Bao Nation,42.365013,-71.102404,575 Massachusetts Ave,Cambridge,MA,2139,US,Restaurants and Other Eating Places
228-222@62j-sj2-t35,India Pavilion,42.365411,-71.104776,17 Central Sq,Cambridge,MA,2139,US,Restaurants and Other Eating Places
229-222@62j-sjv-99f,Alden & Harlow,42.373506,-71.121447,40 Brattle St,Cambridge,MA,2138,US,Restaurants and Other Eating Places
222-224@62j-sj3-33q,Shy Bird,42.362666,-71.08399399999999,1 Broadway,Cambridge,MA,2142,US,Restaurants and Other Eating Places
22d-22c@62j-sjv-9zz,Menya Jiro,42.372068,-71.120846,57 JFK St,Cambridge,MA,2138,US,Restaurants and Other Eating Places
zzw-224@62j-sk2-vcq,The Shops at Porter,42.387205,-71.11854699999999,1815 Massachusetts Ave,Cambridge,MA,2140,US,Restaurants and Other Eating Places
zzy-229@62j-sk2-vs5,Yume Wo Katare,42.389396000000005,-71.119649,1923 Massachusetts Ave,Cambridge,MA,2140,US,Restaurants and Other Eating Places
222-222@62j-sk2-y5f,Ben & Jerry's,42.389695,-71.11892900000001,23 White St,Cambridge,MA,2140,US,Restaurants and Other Eating Places
22g-223@62j-sj2-4jv,Kantipur Cafe,42.369953,-71.096059,119 Hampshire St,Cambridge,MA,2139,US,Restaurants and Other Eating Places
23d-222@62j-sj2-s5z,McDonald's,42.364025,-71.10085699999999,463 Massachusetts Ave,Cambridge,MA,2139,US,Restaurants and Other Eating Places
24m-222@62j-sjv-9zz,Ristorante Giannino,42.372375,-71.121481,10 Eliot St,Cambridge,MA,2138,US,Restaurants and Other Eating Places
25d-223@62j-sjv-9zz,Peet's Coffee and Tea,42.372634999999995,-71.12069699999999,100 Mount Auburn St,Cambridge,MA,2138,US,Restaurants and Other Eating Places
zzw-227@62j-sk2-vs5,Panera Bread,42.389415,-71.119372,5 White St,Cambridge,MA,2140,US,Restaurants and Other Eating Places
zzw-22b@62j-sk2-vs5,Soup Shack,42.389413,-71.119374,9 White St,Cambridge,MA,2140,US,Restaurants and Other Eating Places
23f-223@62j-sjv-b6k,Yenching Restaurant,42.372918,-71.117914,1326 Massachusetts Ave,Cambridge,MA,2138,US,Restaurants and Other Eating Places
zzw-222@62j-shx-t7q,Intrepid Cafe,42.366403000000005,-71.077561,145 1st St,Cambridge,MA,2142,US,Restaurants and Other Eating Places
zzy-227@62j-sj2-jn5,Simon's Too,42.36934,-71.11073,983 Massachusetts Ave,Cambridge,MA,2138,US,Restaurants and Other Eating Places
247-222@62j-shx-j7q,Royal Punjab,42.371232,-71.080153,251 Cambridge St,Cambridge,MA,2141,US,Restaurants and Other Eating Places
2by-224@62j-shx-kcq,Starbucks,42.370445000000004,-71.07719,11 1st St,Cambridge,MA,2141,US,Restaurants and Other Eating Places
22j-222@62j-sj2-6zf,Kimchi Kitchen,42.372553,-71.090859,847 Cambridge St,Cambridge,MA,2141,US,Restaurants and Other Eating Places
223-223@62j-sjv-bkz,The Cambridge Queen's Head,42.375955,-71.115275,45 Quincy St,Cambridge,MA,2138,US,Drinking Places (Alcoholic Beverages)
zzw-222@62j-sj2-d9z,Dumpling Daughter,42.363468,-71.088546,73 Ames St,Cambridge,MA,2142,US,Restaurants and Other Eating Places
zzw-22r@62j-shx-k9f,Dunkin',42.368303000000004,-71.076204,100 Cambridgeside Pl,Cambridge,MA,2141,US,Restaurants and Other Eating Places
23c-222@62j-sjs-v75,Qing Dao Garden,42.396802,-71.12991600000001,2382 Massachusetts Ave,Cambridge,MA,2140,US,Restaurants and Other Eating Places
26n-222@62j-sj2-vmk,Curio Coffee,42.371653,-71.08351,441 Cambridge St,Cambridge,MA,2141,US,Restaurants and Other Eating Places
zzw-22c@62j-sk2-vs5,The Halal Guys,42.389538,-71.11921,15 White St,Cambridge,MA,2140,US,Restaurants and Other Eating Places
223-223@62j-sj2-dvz,The Black Sheep Restaurant & Bar,42.362207,-71.087304,350 Main St,Cambridge,MA,2142,US,Restaurants and Other Eating Places
22g-222@62j-sj2-4jv,The Taste,42.369986,-71.096053,119 Hampshire St,Cambridge,MA,2139,US,Restaurants and Other Eating Places
285-222@62j-sj2-x89,Lone Star Taco Bar,42.372127,-71.086885,635 Cambridge St,Cambridge,MA,2141,US,Restaurants and Other Eating Places
2b4-222@62j-sj2-jqf,Pammy's,42.368421000000005,-71.10920899999999,928 Massachusetts Ave,Cambridge,MA,2139,US,Restaurants and Other Eating Places
zzw-223@62j-sj2-fcq,Cuchi Cuchi,42.363456,-71.097201,795 Main St,Cambridge,MA,2139,US,Drinking Places (Alcoholic Beverages)
222-222@62j-sj3-9fz,Cinderella's Bar & Restaurant,42.372746,-71.099375,187 Hampshire St,Cambridge,MA,2139,US,Restaurants and Other Eating Places
23k-222@62j-sk2-tsq,Shine Square Pub,42.390809999999995,-71.122621,2046 Massachusetts Ave,Cambridge,MA,2140,US,Restaurants and Other Eating Places
zzy-222@62j-sj2-ckf,Cafe Spice,42.359066,-71.09474399999999,84 Massachusetts Ave Fl 2 Lobdell Food Court,Cambridge,MA,2139,US,Restaurants and Other Eating Places
222-222@62j-sj2-ffz,Salts Restaurant,42.363059,-71.096948,798 Main St,Cambridge,MA,2139,US,Restaurants and Other Eating Places
22x-222@62j-sj2-ffz,Mae Asian Eatery,42.36339,-71.09687,781 Main St,Cambridge,MA,2139,US,Restaurants and Other Eating Places
23f-222@62j-sj2-s5z,Clover HFI,42.363958000000004,-71.101638,496 Massachusetts Ave,Cambridge,MA,2139,US,Restaurants and Other Eating Places
248-222@62j-sjv-b6k,Finale,42.372423,-71.11898199999999,30 Dunster St,Cambridge,MA,2138,US,Restaurants and Other Eating Places
zzw-225@62j-shx-k9f,Taco Bell,42.368301,-71.076502,100 Cambridgeside Pl,Cambridge,MA,2141,US,Restaurants and Other Eating Places
248-223@62j-sjs-vpv,Urban Hearth,42.394521000000005,-71.12666899999999,2263 Massachusetts Ave,Cambridge,MA,2140,US,Restaurants and Other Eating Places
zzy-222@62j-shx-m8v,Little Lingo,42.36981,-71.071383,50 Museum Way # 68,Cambridge,MA,2141,US,Restaurants and Other Eating Places
23s-223@62j-sj2-435,Lord Hobo,42.368695,-71.09499699999999,92 Hampshire St,Cambridge,MA,2139,US,Restaurants and Other Eating Places
253-223@62j-sjv-9zz,Federal Burger Kitchen,42.372407,-71.12147,1 Eliot St,Cambridge,MA,2138,US,Restaurants and Other Eating Places
zzw-225@62j-sj2-s5z,Naga,42.363475,-71.101237,450 Massachusetts Ave,Cambridge,MA,2139,US,Restaurants and Other Eating Places
zzw-229@62j-sk2-v9f,Bourbon Coffee,42.387426,-71.118964,1815 Massachusetts Ave,Cambridge,MA,2140,US,Restaurants and Other Eating Places
22y-222@62j-sj2-t35,Mainely Burgers,42.365915,-71.105008,704 Massachusetts Ave,Cambridge,MA,2139,US,Restaurants and Other Eating Places
22n-222@62j-sjv-9zz,Black Sheep Bagel Cafe,42.371777,-71.120631,56 JFK St,Cambridge,MA,2138,US,Restaurants and Other Eating Places
22s-222@62j-sj2-4vz,Mu Lan,42.366355,-71.094301,228 Broadway,Cambridge,MA,2139,US,Restaurants and Other Eating Places
223-223@62j-sj3-4d9,Legal Fish Bowl,42.362814,-71.08747,355 Main St Ste A,Cambridge,MA,2142,US,Restaurants and Other Eating Places
227-223@62j-sjv-b6k,En Boca,42.372522,-71.118031,8 Holyoke St,Cambridge,MA,2138,US,Restaurants and Other Eating Places
228-222@62j-sj2-fcq,Brew on the Grid,42.36377,-71.096819,93 Windsor St,Cambridge,MA,2139,US,Restaurants and Other Eating Places
234-222@62j-sjv-8sq,The Boathouse,42.371435999999996,-71.116713,49 Mount Auburn St,Cambridge,MA,2138,US,Restaurants and Other Eating Places
269-222@62j-sk3-4n5,One Ramen & Sushi,42.385146999999996,-71.119061,1759 Massachusetts Ave,Cambridge,MA,2140,US,Restaurants and Other Eating Places
224-223@62j-sjr-z75,Basha Cafe,42.387878,-71.140395,26 New St,Cambridge,MA,2138,US,Restaurants and Other Eating Places
23q-223@62j-sj3-9fz,Drifter's Tale Tavern,42.373625,-71.098784,1281 Cambridge St,Cambridge,MA,2139,US,Restaurants and Other Eating Places
2kd-222@62j-sj2-jjv,Atomic Bean Cafe,42.368137,-71.10861700000001,904 Massachusetts Ave,Cambridge,MA,2139,US,Restaurants and Other Eating Places
zzw-222@62j-sj2-rff,Diva Indian Bistro,42.365010999999996,-71.10240300000001,577 Massachusetts Ave,Cambridge,MA,2139,US,Restaurants and Other Eating Places
222-223@62j-sjs-54v,Cheddars Pizzeria,42.390042,-71.142964,201 Alewife Brook Pkwy,Cambridge,MA,2138,US,Restaurants and Other Eating Places
233-222@62j-sj3-9mk,Pita Cambridge,42.374038,-71.10063199999999,12 Springfield St,Cambridge,MA,2139,US,Restaurants and Other Eating Places
224-223@62j-sj3-47q,Teriyaki Cafe,42.362761,-71.086864,3 Cambridge Ctr,Cambridge,MA,2142,US,Restaurants and Other Eating Places
24k-223@62j-sk3-249,Chez Henri,42.381831,-71.120148,1 Shepard St,Cambridge,MA,2138,US,Restaurants and Other Eating Places
24q-222@62j-sj2-wx5,Alfredo's Italian Kitchen,42.372267,-71.088105,691 Cambridge St,Cambridge,MA,2141,US,Restaurants and Other Eating Places
27r-222@62j-sj2-8gk,Guangzhou Restaurant,42.373107,-71.097819,1220 Cambridge St,Cambridge,MA,2139,US,Restaurants and Other Eating Places
zzw-222@62j-shx-jvz,Blaze Pizza,42.369371,-71.077051,1 Canal Park,Cambridge,MA,2141,US,Restaurants and Other Eating Places
zzw-22j@62j-sjv-j35,Waypoint,42.369411,-71.112078,1030 Massachusetts Ave,Cambridge,MA,2138,US,Restaurants and Other Eating Places
zzy-222@62j-sj2-fmk,Al's Tech Square Cafe,42.363147999999995,-71.093133,600 Tech Square Main St,Cambridge,MA,2139,US,Restaurants and Other Eating Places
227-222@62j-sj2-ffz,Royal East Restaurant,42.363082,-71.096974,792 Main St,Cambridge,MA,2139,US,Restaurants and Other Eating Places
zzw-22f@62j-sj2-54v,The Friendly Toast Cambridge,42.366186,-71.090687,1 Kendall Sq Bldg 3101,Cambridge,MA,2139,US,Restaurants and Other Eating Places
227-222@62j-sjv-b6k,Sandrine's,42.37252,-71.11803,8 Holyoke St,Cambridge,MA,2138,US,Restaurants and Other Eating Places
22m-222@62j-sjs-xt9,Paddy's Lunch,42.385979999999996,-71.13114499999999,260 Walden St,Cambridge,MA,2138,US,Drinking Places (Alcoholic Beverages)
27y-222@62j-sk3-249,BerryLine,42.382034999999995,-71.120024,1668 Massachusetts Ave,Cambridge,MA,2138,US,Restaurants and Other Eating Places
zzw-222@62j-sj3-9fz,Highland Fried,42.373612,-71.098596,1271 Cambridge St,Cambridge,MA,2139,US,Restaurants and Other Eating Places
24k-222@62j-sk3-249,Luce,42.381921999999996,-71.120161,1 Shepard St,Cambridge,MA,2138,US,Restaurants and Other Eating Places
zzw-223@62j-shx-gx5,The Lexington,42.371959999999994,-71.075408,100 N First St,Cambridge,MA,2141,US,Restaurants and Other Eating Places
zzw-22c@62j-sj2-p35,Brick & Mortar,42.364867,-71.102399,567 Massachusetts Ave,Cambridge,MA,2139,US,Drinking Places (Alcoholic Beverages)
223-222@62j-sj3-3bk,Squeaky Beaker Cafe,42.364706,-71.082167,675 W Kendall St,Cambridge,MA,2142,US,Restaurants and Other Eating Places
226-222@62j-sj2-c3q,Naco Taco,42.362452000000005,-71.098,297 Massachusetts Ave,Cambridge,MA,2139,US,Restaurants and Other Eating Places
22h-222@62j-sj2-6ff,Izzy's Restaurant & Sub Shop,42.366289,-71.095569,169 Harvard St,Cambridge,MA,2139,US,Restaurants and Other Eating Places
223-222@62j-sj2-d5f,Area Four,42.363058,-71.092456,500 Technology Sq,Cambridge,MA,2139,US,Restaurants and Other Eating Places
226-222@62j-sj3-3nq,Beantowne Coffee,42.366417,-71.090625,1 Kendall Sq,Cambridge,MA,2139,US,Restaurants and Other Eating Places
234-222@62j-sjv-bc5,Whitney's Cafe,42.372764000000004,-71.120223,37 JFK St,Cambridge,MA,2138,US,Drinking Places (Alcoholic Beverages)
239-222@62j-sj2-rzf,Muku Ramen,42.363652,-71.09999,411 Massachusetts Ave,Cambridge,MA,2139,US,Restaurants and Other Eating Places
24p-222@62j-sjz-k4v,Marco's Pizza & Grill,42.398288,-71.130987,2445 Massachusetts Ave,Cambridge,MA,2140,US,Restaurants and Other Eating Places
zzw-223@62j-sj3-5fz,Catalyst Cafe,42.36582,-71.079972,75 Binney St,Cambridge,MA,2142,US,Restaurants and Other Eating Places
227-222@62j-sj2-kcq,Kolbeh of Kabob,42.374083,-71.104671,1500 Cambridge St,Cambridge,MA,2139,US,Restaurants and Other Eating Places
23b-222@62j-sj3-85f,Clover HUB,42.373387,-71.094985,1075 Cambridge St,Cambridge,MA,2139,US,Restaurants and Other Eating Places
235-222@62j-sjv-b6k,Saloniki Greek,42.372696999999995,-71.118877,24 Dunster St,Cambridge,MA,2138,US,Restaurants and Other Eating Places
zzw-239@62j-shx-k9f,Sushi Cafe,42.368176,-71.076388,100 Cambridgeside Pl,Cambridge,MA,2141,US,Restaurants and Other Eating Places
22b-222@62j-sj3-2tv,MexiCali Burrito Cabana,42.363417,-71.081959,350 Kendall St,Cambridge,MA,2142,US,Restaurants and Other Eating Places
23z-222@62j-sj2-q2k,River Gods,42.364065000000004,-71.108695,125 River St,Cambridge,MA,2139,US,Restaurants and Other Eating Places
255-222@62j-sjv-9zz,Parsnip Restaurant & Lounge,42.372467,-71.120859,91 Winthrop St,Cambridge,MA,2138,US,Drinking Places (Alcoholic Beverages)
232-222@62j-sjv-nbk,Radcliffe Yard,42.375392,-71.12456999999999,86 Brattle St,Cambridge,MA,2138,US,Restaurants and Other Eating Places
zzw-222@62j-sjp-jgk,Caffè Nero,42.365138,-71.102738,589 Massachusetts Ave,Cambridge,MA,2118,US,Restaurants and Other Eating Places
zzy-222@62j-sk3-2tv,Savory Food Truck,42.380428,-71.11604799999999,Oxford St,Cambridge,MA,2138,US,Restaurants and Other Eating Places
222-222@62j-shx-s89,Riverview Cafe,42.367713,-71.071562,1 Science Park,Cambridge,MA,2114,US,Restaurants and Other Eating Places
23b-223@62j-sj3-85f,Clover Food Lab,42.373154,-71.095093,1075 Cambridge St,Cambridge,MA,2139,US,Restaurants and Other Eating Places
224-222@62j-sj3-3bk,Aceituna Grill,42.364393,-71.08209699999999,605 W Kendall St,Cambridge,MA,2142,US,Restaurants and Other Eating Places
226-222@62j-sj2-54v,Emma's,42.366349,-71.09202900000001,40 Hampshire St,Cambridge,MA,2139,US,Restaurants and Other Eating Places
22b-222@62j-sj3-2zf,Za,42.363578000000004,-71.083294,350 3rd St,Cambridge,MA,2142,US,Restaurants and Other Eating Places
zzw-222@62j-sj3-4d9,Vester,42.363164000000005,-71.088442,73 Ames St,Cambridge,MA,2142,US,Restaurants and Other Eating Places
zzw-23g@62j-shx-k9f,Master Wok,42.368674,-71.076554,100 Cambridgeside Pl,Cambridge,MA,2141,US,Restaurants and Other Eating Places
222-222@62j-sjt-7kf,Alewife Cafe,42.398441,-71.139864,1 Alewife Ctr,Cambridge,MA,2140,US,Restaurants and Other Eating Places
223-222@62j-sj2-4qf,Tatte Bakery & Cafe,42.366372,-71.093115,205 Broadway,Cambridge,MA,2139,US,Restaurants and Other Eating Places
234-222@62j-sk2-tsq,Andy's Diner,42.390619,-71.12213299999999,2030 Massachusetts Ave,Cambridge,MA,2140,US,Restaurants and Other Eating Places
228-222@62j-sj2-c3q,Darwin's,42.362474,-71.098336,313 Massachusetts Ave,Cambridge,MA,2139,US,Restaurants and Other Eating Places
23t-223@62j-sjz-jsq,UpperWest Cocktail Bar,42.397624,-71.13117199999999,1 Cedar St,Cambridge,MA,2140,US,Drinking Places (Alcoholic Beverages)
zzw-222@62j-sjs-6rk,Base Crave,42.381077000000005,-71.13793199999999,344 Huron Ave,Cambridge,MA,2138,US,Restaurants and Other Eating Places
233-223@62j-sj2-qcq,Chick Chick Boom,42.364216,-71.107488,80 River St,Cambridge,MA,2139,US,Restaurants and Other Eating Places
23m-222@62j-sjs-zpv,Hi Rise Bread Company,42.382482,-71.131438,208 Concord Ave,Cambridge,MA,2138,US,Restaurants and Other Eating Places
22b-222@62j-sj2-rff,The Momo Company,42.365028,-71.102423,571 Massachusetts Ave,Cambridge,MA,2139,US,Restaurants and Other Eating Places
23n-223@62j-sjv-jgk,AnyTime Pizza,42.364614,-71.110573,212 Western Ave,Cambridge,MA,2139,US,Restaurants and Other Eating Places
248-222@62j-sj2-xdv,Portugalia,42.372364000000005,-71.088704,723 Cambridge St,Cambridge,MA,2141,US,Restaurants and Other Eating Places
zzw-227@62j-sk2-v9f,Yoki Express,42.388253000000006,-71.119683,1876 Massachusetts Ave,Cambridge,MA,2140,US,Restaurants and Other Eating Places
22d-222@62j-sj2-vzz,Skampa,42.371281,-71.083318,424 Cambridge St,Cambridge,MA,2141,US,Restaurants and Other Eating Places
zzw-222@62j-sjt-kxq,Les Sablons,42.372713,-71.122059,2 Bennett St,Cambridge,MA,2138,US,Restaurants and Other Eating Places
23d-223@62j-sk2-zvf,Cambridge Common,42.382113000000004,-71.119384,1667 Massachusetts Ave,Cambridge,MA,2138,US,Restaurants and Other Eating Places
zzw-223@62j-sj2-b49,Bosworth's,42.359113,-71.092946,77 Massachusetts Ave Ste 7,Cambridge,MA,2139,US,Restaurants and Other Eating Places
22g-222@62j-sj3-4d9,Blue Bottle Coffee,42.36335,-71.08775,88 Ames St Ste R120,Cambridge,MA,2142,US,Restaurants and Other Eating Places
22s-222@62j-sj2-t35,Cantab Lounge,42.366066,-71.105315,738 Massachusetts Ave,Cambridge,MA,2139,US,Drinking Places (Alcoholic Beverages)
243-22d@62j-sjt-kxq,Bar Enza,42.372265000000006,-71.123072,1 Bennett St,Cambridge,MA,2138,US,Restaurants and Other Eating Places
25v-225@62j-sjv-b6k,Zambrero Harvard Square,42.373131,-71.123365,71 Mount Auburn St,Cambridge,MA,2138,US,Restaurants and Other Eating Places
224-223@62j-sjv-b6k,Bosso Ramen Tavern,42.372178000000005,-71.118376,24 Holyoke St,Cambridge,MA,2138,US,Restaurants and Other Eating Places
226-222@62j-sj3-5j9,Bon Me Test Kitchen,42.365056,-71.079892,60 Binney St,Cambridge,MA,2142,US,Restaurants and Other Eating Places
zzw-222@62j-sj2-b49,Steam Cafe,42.359142,-71.092973,77 Massachusetts Ave Bldg 7 Fl 4,Cambridge,MA,2139,US,Restaurants and Other Eating Places
zzw-225@62j-sk2-tsq,Gustazo Cuban Restaurant & Cafe,42.391434000000004,-71.122743,2067 Massachusetts Ave,Cambridge,MA,2140,US,Restaurants and Other Eating Places
22b-222@62j-sjs-rhq,NOCA Provisions,42.393295,-71.130845,156 Rindge Ave,Cambridge,MA,2140,US,Drinking Places (Alcoholic Beverages)
zzw-222@62j-sj2-fcq,Mikkusu Sando,42.363451,-71.097216,795 Main St,Cambridge,MA,2139,US,Restaurants and Other Eating Places
zzw-224@62j-sj2-fcq,Cloud & Spirits,42.363451,-71.097197,795 Main St,Cambridge,MA,2139,US,Drinking Places (Alcoholic Beverages)
zzw-222@62j-sjv-7yv,Tatte Bakery & Cafe,42.372708,-71.116945,1288 Massachusetts Ave,Cambridge,MA,2138,US,Restaurants and Other Eating Places
22d-222@62j-sj2-jjv,The People's Republik,42.367746999999994,-71.107765,878 Massachusetts Ave,Cambridge,MA,2139,US,Restaurants and Other Eating Places
24b-222@62j-sjs-v75,Fiorella's Express,42.39737,-71.12979399999999,2401 Massachusetts Ave,Cambridge,MA,2140,US,Restaurants and Other Eating Places
zzw-222@62j-shx-kcq,Sate Grill on Wheels,42.369817,-71.077794,25 1st St,Cambridge,MA,2141,US,Restaurants and Other Eating Places
zzy-222@62j-shx-gzf,Weltkuche,42.370801,-71.075453,3 Glassworks Ave,Cambridge,MA,2141,US,Restaurants and Other Eating Places
222-222@62j-sjv-brk,Clover HSC,42.376369,-71.116619,1 Oxford St,Cambridge,MA,2138,US,Restaurants and Other Eating Places
22v-226@62j-sj3-9cq,Ole,42.374052,-71.10006899999999,11 Springfield St,Cambridge,MA,2139,US,Restaurants and Other Eating Places
